{"type":"FeatureCollection","name":"ca_hospitales_20260705","crs":{"type":"name","properties":{"name":"urn:ogc:def:crs:EPSG::25830"}},"features":[{"type":"Feature","properties":{"CEN_COD":2840.0,"CEN_DESCLA":"HOSPITAL DE DENIA","CEN_PROV":"03","CEN_LOCA":"63","CEN_NOMBCA":"PARTIDA DE BENIATLA","CEN_NUMCAL":"S/N","CEN_CODPOS":"03700","TCE_CODI":14.0,"ARS_CODI":"13","ZOS_CODI":"00","X_COORD":765793.04692,"Y_COORD":4302786.2384299999},"geometry":{"type":"Point","coordinates":[765793.046920033637434,4302786.238430749624968]}},{"type":"Feature","properties":{"CEN_COD":3050.0,"CEN_DESCLA":"H. UNIVERSIT. VINALOPO","CEN_PROV":"03","CEN_LOCA":"065","CEN_NOMBCA":"TONICO SANSANO MORA","CEN_NUMCAL":"14","CEN_CODPOS":"03293","TCE_CODI":14.0,"ARS_CODI":"24","ZOS_CODI":"00","X_COORD":699905.91836999997,"Y_COORD":4236695.8947599996},"geometry":{"type":"Point","coordinates":[699905.918366511818022,4236695.894764091819525]}},{"type":"Feature","properties":{"CEN_COD":1200.0,"CEN_DESCLA":"H. GRAL.UNIV. DR. BALMIS","CEN_PROV":"03","CEN_LOCA":"014","CEN_NOMBCA":"PINTOR BAEZA","CEN_NUMCAL":"12","CEN_CODPOS":"03010","TCE_CODI":14.0,"ARS_CODI":"19","ZOS_CODI":"00","X_COORD":719676.02977999998,"Y_COORD":4249152.0885800002},"geometry":{"type":"Point","coordinates":[719676.029775587609038,4249152.088584533892572]}},{"type":"Feature","properties":{"CEN_COD":1207.0,"CEN_DESCLA":"H. VIRGEN DE LOS LIRIOS","CEN_PROV":"03","CEN_LOCA":"009","CEN_NOMBCA":"POLIGONO DE CARAMANXEL","CEN_NUMCAL":"S/N","CEN_CODPOS":"03804","TCE_CODI":14.0,"ARS_CODI":"15","ZOS_CODI":"00","X_COORD":720414.90530999994,"Y_COORD":4287157.5127800005},"geometry":{"type":"Point","coordinates":[720414.905314686940983,4287157.512778556905687]}},{"type":"Feature","properties":{"CEN_COD":953.0,"CEN_DESCLA":"H.UNIVERSIT. DOCTOR PESET","CEN_PROV":"46","CEN_LOCA":"250","CEN_NOMBCA":"AVDA GASPAR AGUILAR","CEN_NUMCAL":"90","CEN_CODPOS":"46017","TCE_CODI":14.0,"ARS_CODI":"10","ZOS_CODI":"00","X_COORD":724272.7917,"Y_COORD":4370255.3176899999},"geometry":{"type":"Point","coordinates":[724272.791695628664456,4370255.317686939612031]}},{"type":"Feature","properties":{"CEN_COD":2303.0,"CEN_DESCLA":"HOSPITAL PSIQUIATRICO PROVINCIAL","CEN_PROV":"46","CEN_LOCA":"70","CEN_NOMBCA":"CTRA. BURJASSOT-TORRES TORRES","CEN_NUMCAL":"KM 9","CEN_CODPOS":"46117","TCE_CODI":14.0,"ARS_CODI":"06","ZOS_CODI":"00","X_COORD":719542.884,"Y_COORD":4383884.783},"geometry":{"type":"Point","coordinates":[719542.884,4383884.78299999982]}},{"type":"Feature","properties":{"CEN_COD":956.0,"CEN_DESCLA":"HOSPITAL GENERAL DE ONTINYENT","CEN_PROV":"46","CEN_LOCA":"184","CEN_NOMBCA":"METGE JOSE RIERA ROIG","CEN_NUMCAL":"S/N","CEN_CODPOS":"46870","TCE_CODI":14.0,"ARS_CODI":"14","ZOS_CODI":"00","X_COORD":708087.25541999994,"Y_COORD":4299543.5415200004},"geometry":{"type":"Point","coordinates":[708087.255423665978014,4299543.541515500284731]}},{"type":"Feature","properties":{"CEN_COD":2837.0,"CEN_DESCLA":"HOSPITAL DE MANISES","CEN_PROV":"46","CEN_LOCA":"159","CEN_NOMBCA":"AVDA. GENERALITAT VALENCIANA","CEN_NUMCAL":"50","CEN_CODPOS":"46940","TCE_CODI":14.0,"ARS_CODI":"23","ZOS_CODI":"00","X_COORD":719179.32232000004,"Y_COORD":4373738.7304699998},"geometry":{"type":"Point","coordinates":[719179.322321111918427,4373738.730471580289304]}},{"type":"Feature","properties":{"CEN_COD":984.0,"CEN_DESCLA":"C.H.GRAL.UNIV.DE VALENCIA","CEN_PROV":"46","CEN_LOCA":"250","CEN_NOMBCA":"AVDA TRES CRUCES","CEN_NUMCAL":"S/N","CEN_CODPOS":"46014","TCE_CODI":14.0,"ARS_CODI":"09","ZOS_CODI":"00","X_COORD":723010.78345,"Y_COORD":4371925.3949199999},"geometry":{"type":"Point","coordinates":[723010.783448322094046,4371925.394924713298678]}},{"type":"Feature","properties":{"CEN_COD":3088.0,"CEN_DESCLA":"COMPLEJO SANITARIO MISLATA QUART (ANTIGUO HOSPITAL MILITAR)","CEN_PROV":"46","CEN_LOCA":"169","CEN_NOMBCA":"L'ALITRA","CEN_NUMCAL":"1","CEN_CODPOS":"46930","TCE_CODI":14.0,"ARS_CODI":"00","ZOS_CODI":"00","X_COORD":721289.029,"Y_COORD":4373185.37},"geometry":{"type":"Point","coordinates":[721289.029,4373185.37]}},{"type":"Feature","properties":{"CEN_COD":3082.0,"CEN_DESCLA":"H. DE LLIRIA","CEN_PROV":"46","CEN_LOCA":"147","CEN_NOMBCA":"PARATGE CABEÇO DE L'AGUILA, CV-35","CEN_NUMCAL":"S/N","CEN_CODPOS":"46160","TCE_CODI":14.0,"ARS_CODI":"06","ZOS_CODI":"00","X_COORD":704295.434,"Y_COORD":4390662.081},"geometry":{"type":"Point","coordinates":[704295.434,4390662.081]}},{"type":"Feature","properties":{"CEN_COD":1234.0,"CEN_DESCLA":"HOSPITAL UNIVERSITARIO SAN JUAN DE ALICANTE","CEN_PROV":"03","CEN_LOCA":"119","CEN_NOMBCA":"CARRETERA NACIONAL 332","CEN_NUMCAL":"S/N","CEN_CODPOS":"03550","TCE_CODI":14.0,"ARS_CODI":"17","ZOS_CODI":"00","X_COORD":724021.28173000005,"Y_COORD":4252085.6426600004},"geometry":{"type":"Point","coordinates":[724021.281725745880976,4252085.642655588686466]}},{"type":"Feature","properties":{"CEN_COD":90400.0,"CEN_DESCLA":"H. UNIV. I POLITEC. LA FE","CEN_PROV":"46","CEN_LOCA":"250","CEN_NOMBCA":"AVENIDA FERNANDO ABRIL MARTORELL","CEN_NUMCAL":"106","CEN_CODPOS":"46026","TCE_CODI":14.0,"ARS_CODI":"07","ZOS_CODI":"00","X_COORD":725804.0,"Y_COORD":4369294.0},"geometry":{"type":"Point","coordinates":[725804.0,4369294.0]}},{"type":"Feature","properties":{"CEN_COD":954.0,"CEN_DESCLA":"H. FRANCESC DE BORJA","CEN_PROV":"46","CEN_LOCA":"131","CEN_NOMBCA":"AVDA. DE LA MEDICINA","CEN_NUMCAL":"6","CEN_CODPOS":"46702","TCE_CODI":14.0,"ARS_CODI":"12","ZOS_CODI":"00","X_COORD":743457.14367999998,"Y_COORD":4316737.7589600002},"geometry":{"type":"Point","coordinates":[743457.143684322363697,4316737.758960737846792]}},{"type":"Feature","properties":{"CEN_COD":1215.0,"CEN_DESCLA":"H.GRAL.UNIVERSIT. DE ELDA","CEN_PROV":"03","CEN_LOCA":"066","CEN_NOMBCA":"CTRA. ELDA-SAX, PTDA. LA TORRETA","CEN_NUMCAL":"S/N","CEN_CODPOS":"03600","TCE_CODI":14.0,"ARS_CODI":"18","ZOS_CODI":"00","X_COORD":691350.06486000004,"Y_COORD":4262873.9166000001},"geometry":{"type":"Point","coordinates":[691350.064858494908549,4262873.916603672318161]}},{"type":"Feature","properties":{"CEN_COD":968.0,"CEN_DESCLA":"HOSPITAL UNIVERSITARIO ARNAU DE VILANOVA","CEN_PROV":"46","CEN_LOCA":"250","CEN_NOMBCA":"SAN CLIMENT","CEN_NUMCAL":"12","CEN_CODPOS":"46015","TCE_CODI":14.0,"ARS_CODI":"06","ZOS_CODI":"00","X_COORD":723282.11161000002,"Y_COORD":4374432.7242599996},"geometry":{"type":"Point","coordinates":[723282.111605655169114,4374432.724263412877917]}},{"type":"Feature","properties":{"CEN_COD":1229.0,"CEN_DESCLA":"H. DE LA MARINA BAIXA","CEN_PROV":"03","CEN_LOCA":"139","CEN_NOMBCA":"AV. ALCALDE EN JAUME BOTELLA MAJOR","CEN_NUMCAL":"7","CEN_CODPOS":"03570","TCE_CODI":14.0,"ARS_CODI":"16","ZOS_CODI":"00","X_COORD":744488.88818000001,"Y_COORD":4267525.0503700003},"geometry":{"type":"Point","coordinates":[744488.88817752583418,4267525.050370291806757]}},{"type":"Feature","properties":{"CEN_COD":1501.0,"CEN_DESCLA":"H. UNIVERSIT. DE LA PLANA","CEN_PROV":"12","CEN_LOCA":"135","CEN_NOMBCA":"CTRA. VILA-REAL - BURRIANA KM 0.5","CEN_NUMCAL":"S/N","CEN_CODPOS":"12540","TCE_CODI":14.0,"ARS_CODI":"03","ZOS_CODI":"00","X_COORD":748047.64252999995,"Y_COORD":4423434.7841499997},"geometry":{"type":"Point","coordinates":[748047.642533517209813,4423434.784145167097449]}},{"type":"Feature","properties":{"CEN_COD":979.0,"CEN_DESCLA":"H. LA MALVA-ROSA","CEN_PROV":"46","CEN_LOCA":"250","CEN_NOMBCA":"ISABEL DE VILLENA","CEN_NUMCAL":"2","CEN_CODPOS":"46011","TCE_CODI":14.0,"ARS_CODI":"05","ZOS_CODI":"00","X_COORD":730048.91244,"Y_COORD":4373190.9787900001},"geometry":{"type":"Point","coordinates":[730048.912438899278641,4373190.978787258267403]}},{"type":"Feature","properties":{"CEN_COD":1202.0,"CEN_DESCLA":"H.SANT VICENT DEL RASPEIG","CEN_PROV":"03","CEN_LOCA":"122","CEN_NOMBCA":"LILLO JUAN","CEN_NUMCAL":"137","CEN_CODPOS":"03690","TCE_CODI":14.0,"ARS_CODI":"00","ZOS_CODI":"00","X_COORD":715626.24196000001,"Y_COORD":4253456.1329500005},"geometry":{"type":"Point","coordinates":[715626.241960750892758,4253456.132947775535285]}},{"type":"Feature","properties":{"CEN_COD":1502.0,"CEN_DESCLA":"H. LA MAGDALENA","CEN_PROV":"12","CEN_LOCA":"040","CEN_NOMBCA":"CTRA. BORRIOL","CEN_NUMCAL":"S/N","CEN_CODPOS":"12005","TCE_CODI":14.0,"ARS_CODI":"00","ZOS_CODI":"00","X_COORD":750624.08667999995,"Y_COORD":4432068.8194399998},"geometry":{"type":"Point","coordinates":[750624.08668319392018,4432068.819441146217287]}},{"type":"Feature","properties":{"CEN_COD":1500.0,"CEN_DESCLA":"H. COMARCAL DE VINAROS","CEN_PROV":"12","CEN_LOCA":"138","CEN_NOMBCA":"AV. GIL DE ATROCILLO","CEN_NUMCAL":"S/N","CEN_CODPOS":"12500","TCE_CODI":14.0,"ARS_CODI":"01","ZOS_CODI":"00","X_COORD":792506.25913000002,"Y_COORD":4484956.5561199998},"geometry":{"type":"Point","coordinates":[792506.259134321240708,4484956.556116858497262]}},{"type":"Feature","properties":{"CEN_COD":961.0,"CEN_DESCLA":"HOSPITAL UNIVERSITARIO DE LA RIBERA","CEN_PROV":"46","CEN_LOCA":"17","CEN_NOMBCA":"CTRA. CORBERA-ALZIRA","CEN_NUMCAL":"KM 1","CEN_CODPOS":"46600","TCE_CODI":14.0,"ARS_CODI":"11","ZOS_CODI":"00","X_COORD":723178.68232000002,"Y_COORD":4337727.8356900001},"geometry":{"type":"Point","coordinates":[723178.682317977654748,4337727.835691248066723]}},{"type":"Feature","properties":{"CEN_COD":2526.0,"CEN_DESCLA":"HOSPITAL UNIVERSITARIO DE TORREVIEJA","CEN_PROV":"03","CEN_LOCA":"133","CEN_NOMBCA":"CTRA CV95 TORREVIEJA-S MIGUEL DE SALINAS.LACEÑUELA","CEN_NUMCAL":null,"CEN_CODPOS":"03186","TCE_CODI":14.0,"ARS_CODI":"22","ZOS_CODI":"00","X_COORD":700696.05675999995,"Y_COORD":4204220.0245700004},"geometry":{"type":"Point","coordinates":[700696.056760983425193,4204220.024566577747464]}},{"type":"Feature","properties":{"CEN_COD":1536.0,"CEN_DESCLA":"C.H. PROVINCIAL CASTELLON","CEN_PROV":"12","CEN_LOCA":"040","CEN_NOMBCA":"DOCTOR CLARA","CEN_NUMCAL":"19","CEN_CODPOS":"12002","TCE_CODI":14.0,"ARS_CODI":"02","ZOS_CODI":"00","X_COORD":752293.16922000004,"Y_COORD":4430240.9110899996},"geometry":{"type":"Point","coordinates":[752293.169224261073396,4430240.911093588918447]}},{"type":"Feature","properties":{"CEN_COD":2148.0,"CEN_DESCLA":"HOSPITAL PARE JOFRE","CEN_PROV":"46","CEN_LOCA":"250","CEN_NOMBCA":"SANT LLATZER","CEN_NUMCAL":"S/N","CEN_CODPOS":"46017","TCE_CODI":14.0,"ARS_CODI":"00","ZOS_CODI":"00","X_COORD":724245.46395,"Y_COORD":4370305.8322400004},"geometry":{"type":"Point","coordinates":[724245.463953649625182,4370305.83223775587976]}},{"type":"Feature","properties":{"CEN_COD":2844.0,"CEN_DESCLA":"H. LA PEDRERA","CEN_PROV":"03","CEN_LOCA":"063","CEN_NOMBCA":"PARTIDA PLANA EST","CEN_NUMCAL":"4","CEN_CODPOS":"03700","TCE_CODI":14.0,"ARS_CODI":"00","ZOS_CODI":"00","X_COORD":768777.14928999997,"Y_COORD":4302274.0322899995},"geometry":{"type":"Point","coordinates":[768777.149287299951538,4302274.032290935516357]}},{"type":"Feature","properties":{"CEN_COD":983.0,"CEN_DESCLA":"HOSPITAL DOCTOR MOLINER","CEN_PROV":"46","CEN_LOCA":"228","CEN_NOMBCA":"PORTACOELI","CEN_NUMCAL":"S/N","CEN_CODPOS":"46180","TCE_CODI":14.0,"ARS_CODI":"00","ZOS_CODI":"00","X_COORD":716702.72592999996,"Y_COORD":4392649.9321799995},"geometry":{"type":"Point","coordinates":[716702.725932722212747,4392649.932178397662938]}},{"type":"Feature","properties":{"CEN_COD":972.0,"CEN_DESCLA":"H. GENERAL DE REQUENA","CEN_PROV":"46","CEN_LOCA":"213","CEN_NOMBCA":"PARATGE CASABLANCA","CEN_NUMCAL":"S/N","CEN_CODPOS":"46340","TCE_CODI":14.0,"ARS_CODI":"08","ZOS_CODI":"00","X_COORD":664325.78293999995,"Y_COORD":4372726.4202199997},"geometry":{"type":"Point","coordinates":[664325.782943611149676,4372726.42022390011698]}},{"type":"Feature","properties":{"CEN_COD":974.0,"CEN_DESCLA":"HOSPITAL UNIVERSITARIO DE SAGUNTO","CEN_PROV":"46","CEN_LOCA":"220","CEN_NOMBCA":"AV. RAMON Y CAJAL","CEN_NUMCAL":"S/N","CEN_CODPOS":"46520","TCE_CODI":14.0,"ARS_CODI":"04","ZOS_CODI":"00","X_COORD":737446.5901,"Y_COORD":4395239.2414800003},"geometry":{"type":"Point","coordinates":[737446.59010419389233,4395239.241482892073691]}},{"type":"Feature","properties":{"CEN_COD":977.0,"CEN_DESCLA":"H. CLINICO DE VALENCIA","CEN_PROV":"46","CEN_LOCA":"250","CEN_NOMBCA":"AV BLASCO IBAÑEZ","CEN_NUMCAL":"17","CEN_CODPOS":"46010","TCE_CODI":14.0,"ARS_CODI":"05","ZOS_CODI":"00","X_COORD":726906.98571000004,"Y_COORD":4373215.1703599999},"geometry":{"type":"Point","coordinates":[726906.985712509485893,4373215.170356815680861]}},{"type":"Feature","properties":{"CEN_COD":1219.0,"CEN_DESCLA":"H.GRAL.UNIV.ELCHE","CEN_PROV":"03","CEN_LOCA":"065","CEN_NOMBCA":"CAMINO DE LA ALMAZARA","CEN_NUMCAL":"11","CEN_CODPOS":"03203","TCE_CODI":14.0,"ARS_CODI":"20","ZOS_CODI":"00","X_COORD":702447.52511000005,"Y_COORD":4237196.0818800004},"geometry":{"type":"Point","coordinates":[702447.525110520189628,4237196.081881547346711]}},{"type":"Feature","properties":{"CEN_COD":1223.0,"CEN_DESCLA":"H. VEGA BAJA","CEN_PROV":"03","CEN_LOCA":"099","CEN_NOMBCA":"CARRETERA ORIHUELA-ALMORADI SIN NUMERO","CEN_NUMCAL":"S/N","CEN_CODPOS":"03314","TCE_CODI":14.0,"ARS_CODI":"21","ZOS_CODI":"00","X_COORD":688241.866,"Y_COORD":4217801.9721100004},"geometry":{"type":"Point","coordinates":[688241.866002265946008,4217801.972107464447618]}},{"type":"Feature","properties":{"CEN_COD":1503.0,"CEN_DESCLA":"H.GRAL.UNIV. DE CASTELLON","CEN_PROV":"12","CEN_LOCA":"040","CEN_NOMBCA":"AV. BENICASSIM","CEN_NUMCAL":"S/N","CEN_CODPOS":"12004","TCE_CODI":14.0,"ARS_CODI":"02","ZOS_CODI":"00","X_COORD":752475.84,"Y_COORD":4432238.73},"geometry":{"type":"Point","coordinates":[752475.84,4432238.73]}},{"type":"Feature","properties":{"CEN_COD":958.0,"CEN_DESCLA":"H. LLUIS ALCANYIS","CEN_PROV":"46","CEN_LOCA":"145","CEN_NOMBCA":"CRA. XATIVA-SILLA","CEN_NUMCAL":"KM 2","CEN_CODPOS":"46800","TCE_CODI":14.0,"ARS_CODI":"14","ZOS_CODI":"00","X_COORD":715583.0,"Y_COORD":4320464.0},"geometry":{"type":"Point","coordinates":[715583.0,4320464.0]}}]}