{"type":"FeatureCollection", "features": [{"type":"Feature","geometry":{"type":"Polygon","coordinates":[[[719334,4247826.91],[719327.74,4247757.4],[719330.39,4247711.77],[719272.45,4247657.43],[719203.72,4247660.08],[719159.17,4247573.16],[719093.43,4247533.76],[719069.17,4247482.7],[718999.3,4247442.06],[719002.86,4247414.17],[718984.93,4247291.76],[718967.43,4247182.42],[718958.93,4247131.67],[718942.61,4247041.76],[718968.23,4246907.34],[718964.42,4246844.26],[719076.15,4246347.66],[718997.79,4246338.59],[718540.91,4246232.56],[718475.91,4246196.17],[718393.86,4245779.3],[718489.77,4245691.46],[718562.58,4245651.17],[718662.03,4245724.06],[719033.21,4245366.16],[719084.58,4245349.45],[719207.33,4245473.8],[719003.65,4245687.91],[718940.14,4245630.41],[718854.58,4245616.06],[718793.64,4245648.25],[718663.53,4245776.96],[718662.65,4245815.56],[718705.09,4245886.81],[718753.84,4245924.76],[718830.41,4245951.1],[718879.09,4245934.56],[719021.34,4245974.16],[719193.41,4245979.34],[719221.38,4245866.81],[719345.15,4245899.34],[719309.91,4245828.34],[719315.91,4245791.75],[719422.9,4245686.2],[719682.22,4245939.44],[719687.53,4245970.49],[719620.34,4246038.49],[719577.09,4246035.45],[719440.03,4245904.58],[719345.72,4245996.7],[719709.53,4246162.54],[719795.22,4246077.79],[719838.41,4246110.74],[719797.03,4246202.74],[720014.41,4246306.04],[719981.42,4246376.29],[719783.28,4246291.74],[719752.97,4246291.74],[719651.34,4246416.83],[719598.79,4246448.79],[719772.85,4246732.24],[719813.16,4246775.7],[720146.79,4246954.08],[720196.93,4246939.29],[720247.6,4246804.79],[720203.54,4246788.04],[720260.42,4246638.29],[720256.85,4246607.32],[720105.92,4246453.58],[720134.04,4246388.94],[720169.6,4246395.79],[720311.54,4246541.07],[720328.66,4246524.68],[720382.15,4246264.28],[720374.28,4246236.73],[719694.82,4245542.26],[719696.46,4245473.4],[719431.33,4245200.95],[719446.27,4245189.75],[719562.52,4245304.55],[719897.52,4245651.24],[720218.22,4245975.54],[720454.84,4246220.23],[720458.65,4246257.73],[720375.54,4246642.64],[720361.98,4246724.78],[720420.35,4246763.98],[720380.43,4246941.57],[720357.67,4246967.78],[720371.49,4246991.43],[720370.11,4246998.03],[720374.55,4247007.43],[720374.93,4247009.44],[720376.11,4247012.39],[720376.24,4247012.79],[720274.07,4247024.95],[720257.94,4246969.66],[720199.35,4246954.51],[720186.99,4247040.15],[719985.55,4246932.65],[719837.03,4247246.57],[719724.67,4247196.65],[719655.61,4247372.75],[719788.55,4247438.69],[719788.67,4247492.74],[719579.93,4247472.09],[719530.17,4247446.66],[719479.87,4247568.45],[719535.61,4247600.25],[719499.18,4247705.3],[719534.37,4247773.55],[719475.25,4247773.95],[719427.94,4247774.34],[719368.44,4247775.7],[719357.18,4247791.75],[719334,4247826.91]]]},"properties":{"DPTOCRC":"17","NOMBRE":"PORTUGAL (ALICANTE)","ZONA_COD":"1701","DEPARTAMENTO":"ALICANTE - SAN JUAN"}},{"type":"Feature","geometry":{"type":"Polygon","coordinates":[[[719930.68,4248038.58],[719902,4248038.08],[719889.56,4248037.58],[719870,4248037.51],[719733.18,4248035.7],[719737.18,4247948.25],[719575.87,4247842.59],[719569.81,4247842.66],[719555.94,4247813.3],[719544.12,4247791.75],[719534.37,4247773.55],[719499.18,4247705.3],[719535.61,4247600.25],[719479.87,4247568.45],[719530.17,4247446.66],[719579.93,4247472.09],[719788.67,4247492.74],[719788.55,4247438.69],[719655.61,4247372.75],[719724.67,4247196.65],[719837.03,4247246.57],[719985.55,4246932.65],[720186.99,4247040.15],[720199.35,4246954.51],[720257.94,4246969.66],[720274.07,4247024.95],[720376.24,4247012.79],[720377.11,4247015.43],[720388.43,4247028.68],[720397.93,4247041.73],[720459.74,4247086.32],[720547.99,4247183.28],[720716.49,4247413.23],[720741.44,4247466.53],[720779.41,4247478.28],[720759.11,4247538.65],[720803.94,4247627.39],[720825.37,4247835.98],[720763.68,4247957.07],[720606.68,4247894.23],[720441.62,4247926.28],[720288.37,4247929.33],[720210.87,4247916.94],[720139.81,4247883.08],[719894.25,4247902.04],[719931.37,4247970.04],[719930.68,4248038.58]]]},"properties":{"DPTOCRC":"17","NOMBRE":"SANTA FAZ-AYTO (ALICANTE)","ZONA_COD":"1702","DEPARTAMENTO":"ALICANTE - SAN JUAN"}},{"type":"Feature","geometry":{"type":"Polygon","coordinates":[[[720272.05,4249936.4],[720305.71,4249686.58],[720329.74,4249686.58],[720341.38,4249573.34],[720111.7,4249541.79],[720187.46,4249065.49],[720151.64,4248828.83],[720261.83,4248774.33],[720212.45,4248678.83],[720178.19,4248612.15],[720156.45,4248570.65],[720121.69,4248506.94],[720096.95,4248480.19],[720070.51,4248400.33],[720207.19,4248270.9],[720171.88,4248238.58],[720008.88,4248239.49],[720009.68,4248180.54],[720036.06,4248040.74],[719989.56,4248039.74],[719930.68,4248038.58],[719931.37,4247970.04],[719894.25,4247902.04],[720139.81,4247883.08],[720210.87,4247916.94],[720288.37,4247929.33],[720441.62,4247926.28],[720606.68,4247894.23],[720763.68,4247957.07],[720825.37,4247835.98],[720803.94,4247627.39],[720759.11,4247538.65],[720779.41,4247478.28],[720919.67,4247521.89],[721044.68,4247590.82],[721140.94,4247711.42],[721216.31,4247740.97],[721220.12,4247786.81],[721277.87,4247827.63],[721332.77,4247811.14],[721355.12,4247775.97],[721428.31,4247797.06],[721482.31,4247970.81],[721538.18,4248035.67],[721641.57,4248116.21],[721731.97,4248211.73],[721565.72,4248432.63],[721561.76,4248453.25],[721652.1,4248641.74],[721738.34,4248695.57],[721760.88,4248756.89],[721865.67,4248881.69],[722010.45,4248978.24],[722051.51,4249021.43],[722239.84,4249166.61],[722400.05,4249254.24],[722536.46,4249312.14],[722603.08,4249318.48],[722656.21,4249301.82],[722767.24,4249235.2],[722827.91,4249178.5],[722837.98,4249217.24],[722831.28,4249277],[722803.1,4249344.7],[722807.98,4249431.04],[722686.72,4249441.25],[722585.22,4249399.25],[721862.97,4249367.55],[722032.47,4249746.55],[722029.56,4249747.42],[722022.98,4249749.37],[721950.03,4249771.21],[721772.48,4249825.26],[721600.54,4249829.8],[721479.29,4249843.31],[721349.71,4249843.17],[721273.03,4249826.97],[720975.47,4249846.18],[720835.84,4249878.43],[720537.84,4249893.29],[720482.84,4249899.53],[720291.03,4249934.29],[720280.47,4249935.79],[720272.71,4249936.4],[720272.05,4249936.4]]]},"properties":{"DPTOCRC":"17","NOMBRE":"HOSP. PROVINCIAL-PLA (ALICANTE)","ZONA_COD":"1703","DEPARTAMENTO":"ALICANTE - SAN JUAN"}},{"type":"Feature","geometry":{"type":"Polygon","coordinates":[[[722431.37,4250621.2],[722460.29,4250663.36],[722495.51,4250736.04],[722515.4,4250800.15],[722566.52,4250869.42],[722595.47,4250936.57],[722587.94,4251000.85],[722557.09,4251040.46],[722661.61,4251371.62],[722724.6,4251621.93],[722904.6,4251761.89],[722864.79,4251859.44],[722791.13,4251881.37],[722706.58,4251825.35],[722598.38,4251886.31],[722484.14,4251912.23],[722468.27,4251956.13],[722285.1,4252048.69],[722260.55,4252096.14],[722259.93,4252179.99],[722172.34,4252308.92],[722172.54,4252373.69],[722237.53,4252468.81],[722236.05,4252626.35],[722212.67,4252760.23],[722193.75,4252806.36],[722182.61,4252810.36],[722153.87,4252797.74],[721987.97,4252759.11],[721939.82,4252751.44],[721663.33,4252686.61],[721601.51,4252671.75],[721601.41,4252671.38],[721592.89,4252638.05],[721586.97,4252609.73],[721563.73,4252591.97],[721488.9,4252585.21],[721390.82,4252540.82],[721357.05,4252456.21],[721256.18,4252351.43],[721132.91,4252474.29],[721068.3,4252514.42],[721004.78,4252531.88],[720850.89,4252531.48],[720751.12,4252499.49],[720565.25,4252559.3],[720439.98,4252545.42],[720406.63,4252493.73],[720239.71,4252300.05],[720178.78,4252190.55],[720152.33,4252034.76],[720126.72,4251951.23],[720085.38,4251892.71],[720042.57,4251766.73],[720046.21,4251683.59],[719922.55,4251460.99],[719852.27,4251408.25],[719796.03,4251330.09],[719716.15,4251185.29],[719672.9,4251087.29],[719630.45,4250868.55],[719369.85,4250895.17],[719378.22,4250846.31],[719397.79,4250791.76],[719424.72,4250719.45],[719457.22,4250632.3],[719536.29,4250642.67],[719541.22,4250643.11],[719671.67,4250661.52],[719686.71,4250577.21],[719680,4250510.23],[719744.37,4250514.83],[719752.59,4250433.39],[719797.48,4250394.84],[719777.14,4250302.75],[719827.98,4250298.3],[719832.36,4250162.3],[719902.62,4250146.5],[720012.15,4250097.01],[720041.47,4249918.94],[720049.97,4249917.99],[720252.97,4249936.15],[720262.28,4249936.49],[720272.05,4249936.4],[720272.71,4249936.4],[720291.03,4249934.29],[720482.84,4249899.53],[720537.84,4249893.29],[720835.84,4249878.43],[720975.47,4249846.18],[721273.03,4249826.97],[721349.71,4249843.17],[721479.29,4249843.31],[721600.54,4249829.8],[721772.48,4249825.26],[721950.03,4249771.21],[722022.98,4249749.37],[722029.56,4249747.42],[722050,4249788.85],[722187.24,4250096.87],[722247.82,4250226.12],[722388.17,4250511.01],[722431.37,4250621.2]]]},"properties":{"DPTOCRC":"17","NOMBRE":"JUAN XXIII (ALICANTE)","ZONA_COD":"1704","DEPARTAMENTO":"ALICANTE - SAN JUAN"}},{"type":"Feature","geometry":{"type":"Polygon","coordinates":[[[721731.97,4248211.73],[721800.07,4248256.46],[721938.45,4248270.62],[722009.45,4248313.05],[722077.76,4248399.76],[722200.19,4248472.96],[722252.57,4248448.95],[722332.89,4248526.65],[722367.39,4248518.7],[722403.46,4248576.45],[722467.2,4248593.75],[722572.2,4248685.15],[722689.52,4248741.2],[722764.71,4248828.36],[722918.53,4248960.74],[723032.03,4249000.6],[723022.03,4249045.69],[723109.9,4249087.6],[723145.65,4249136.03],[723273.41,4249177.03],[723430.35,4249192.89],[723502.1,4249170.99],[723525.47,4249094.78],[723596.22,4249071.85],[723635.16,4249079.59],[723699.48,4249039.88],[723818.91,4249013.23],[723927.98,4249004.34],[723948.04,4248970.88],[724093.16,4248920.62],[724190.98,4248827.76],[724140.59,4248735.18],[724136.22,4248676.33],[724190.97,4248494.52],[724230.4,4248408.01],[724204.9,4248354.47],[724299.21,4248375.22],[724453.53,4248322.62],[724517.47,4248315.67],[724562.47,4248278.01],[724670.59,4248304.26],[724748.47,4248285.37],[724841.34,4248323.36],[724885.21,4248302.11],[724912.09,4248218.07],[724907.28,4248177.91],[724977.9,4248168.82],[725240.53,4248185],[725258.15,4248144.99],[725381.22,4248152.82],[725425.72,4248209.35],[725464.98,4248157.7],[725530.34,4248115.56],[725595.35,4248108.85],[725693.16,4248127.06],[725785.22,4248085.4],[725870.29,4248100.4],[725891.98,4248139.06],[725970.66,4248171.45],[725983.66,4248108.31],[726021.91,4248071.35],[726067.54,4248097.9],[726109.29,4248050.94],[726159.16,4248043.8],[726252.29,4248069.39],[726306.91,4248105.19],[726394.79,4248068.59],[726538.48,4248097.3],[726670.79,4248077.05],[726689.41,4248087.8],[726844.86,4248100.05],[726912.92,4248148.47],[726885.86,4248241.04],[726811.23,4248261.18],[726814.73,4248314.47],[726735.92,4248404.48],[726439.73,4248645.23],[726394.17,4248668.73],[726332.23,4248822.89],[726307.99,4248943.34],[726275.62,4249240.81],[726267.43,4249525.24],[726270.37,4249602.2],[726294.69,4249692.55],[726291.01,4249791.65],[726299.88,4250138.65],[726298.45,4250483.23],[726310.33,4250629.94],[726311.52,4250925.64],[726307.21,4251055.45],[726322.96,4251220.6],[726325.05,4251409.5],[726366.65,4251384.65],[726385.65,4251525.77],[725692.14,4251936.22],[725516.39,4252051.55],[725495.79,4252188.17],[725484.14,4252268.49],[725477.58,4252310.61],[725477.29,4252312.38],[725436.91,4252269.38],[725268.43,4252158.55],[724909.41,4251906.85],[724583.44,4251669.78],[724537.65,4251683.67],[724358.65,4251790.68],[724280.65,4251816.68],[724087.64,4251876.68],[724084.2,4251878.54],[724076.23,4251844.67],[724069.57,4251816.35],[724053.01,4251766.49],[724053.4,4251694.54],[724033.22,4251560.24],[723977.62,4251397.95],[723930.45,4251349.22],[723825.78,4251142.4],[723707.64,4250936.54],[723646.08,4250939.38],[723590.31,4250885.3],[723464.86,4250834.02],[723383.45,4250754.76],[723278.04,4250704.95],[723218.49,4250646.53],[723118.99,4250477.95],[723091.54,4250451.09],[723032.31,4250342.5],[723007.39,4250254.4],[722956.47,4250161.5],[722847.25,4250208.48],[722741.44,4250268.79],[722597.04,4250381.13],[722524.66,4250493.56],[722497.5,4250529.25],[722435.83,4250594.15],[722431.37,4250621.2],[722431.25,4250621.97],[722388.17,4250511.01],[722247.82,4250226.12],[722187.24,4250096.88],[722050,4249788.85],[722029.56,4249747.42],[722032.47,4249746.55],[721862.97,4249367.55],[722585.22,4249399.25],[722686.72,4249441.25],[722807.98,4249431.04],[722803.1,4249344.7],[722831.28,4249277],[722827.91,4249178.5],[722767.24,4249235.2],[722656.21,4249301.82],[722603.08,4249318.48],[722536.46,4249312.14],[722400.05,4249254.24],[722239.84,4249166.61],[722051.51,4249021.43],[722010.45,4248978.24],[721865.67,4248881.69],[721760.88,4248756.89],[721738.34,4248695.57],[721652.1,4248641.74],[721561.76,4248453.25],[721565.72,4248432.63],[721731.97,4248211.73]]]},"properties":{"DPTOCRC":"17","NOMBRE":"CABO LAS HUERTAS (ALICANTE)","ZONA_COD":"1705","DEPARTAMENTO":"ALICANTE - SAN JUAN"}},{"type":"Feature","geometry":{"type":"Polygon","coordinates":[[[726385.65,4251525.77],[726399.66,4251601.65],[726420.66,4251884.64],[726416.66,4252058.65],[726451.67,4252419.65],[726494.68,4252694.65],[726516.68,4252957.65],[726542.69,4253194.66],[726592.7,4253502.66],[726647.7,4253689.65],[726686.71,4253930.66],[726716.71,4254079.66],[726773.71,4254243.66],[726813.72,4254421.66],[726896.72,4254736.66],[726934.73,4254789.66],[727000.73,4254840.66],[727173.73,4254899.66],[727393.73,4254895.66],[727480.74,4254904.65],[727578.73,4254937.65],[727639.74,4254977.65],[727706.74,4255047.65],[727787.75,4255200.65],[727838.75,4255483.65],[727757.75,4255604.66],[727716.75,4255691.66],[727731.76,4255846.66],[727774.76,4256005.66],[727831.77,4256181.66],[727890.77,4256422.66],[727947.77,4256546.66],[728027.77,4256680.66],[728061.78,4256853.66],[728105.78,4256947.66],[728158.79,4257006.66],[728214.79,4257028.66],[728269.79,4257005.66],[728321.79,4256948.66],[728381.79,4256977.66],[728387.79,4257065.66],[728413.79,4257127.66],[728386.79,4257169.66],[728386.79,4257268.66],[728423.79,4257339.66],[728548.8,4257541.66],[728585.8,4257575.66],[728728.8,4257615.65],[728824.81,4257588.65],[728888.81,4257606.65],[728954.81,4257653.65],[729015.81,4257732.65],[728999.81,4257794.66],[728895.81,4257793.65],[728895.81,4257854.65],[728951.81,4257918.65],[728968.81,4257981.65],[729046.82,4258118.65],[729132.82,4258183.65],[729170.82,4258195.65],[729257.82,4258181.65],[729292.82,4258228.65],[729310.82,4258322.65],[729345.82,4258340.65],[729417.82,4258305.65],[729537.83,4258345.65],[729590.82,4258414.65],[729745.83,4258528.65],[729794.83,4258543.65],[729858.83,4258603.64],[729957.83,4258642.65],[730067.83,4258607.65],[730089.83,4258654.64],[730077.83,4258702.65],[730095.83,4258767.64],[730173.83,4258796.64],[730188.83,4258704.64],[730213.84,4258693.64],[730327.84,4258783.64],[730320.84,4258850.64],[730376.84,4258890.65],[730431.84,4258875.64],[730547.84,4258876.64],[730613.84,4258896.64],[730841.84,4259088.64],[730944.85,4259253.64],[731057.85,4259339.64],[731143.85,4259386.63],[731344.85,4259448.63],[731434.86,4259530.63],[731565.86,4259627.63],[731657.86,4259670.63],[731729.86,4259681.63],[731813.86,4259673.62],[731881.86,4259738.63],[731884.87,4259781.63],[731931.86,4259898.62],[732005.87,4259993.63],[732115.87,4260109.62],[732210.87,4260193.63],[732297.88,4260255.62],[732606.88,4260542.62],[732751.89,4260664.61],[732956.89,4260800.61],[733159.89,4260954.61],[733366.9,4261123.61],[733480.9,4261247.6],[733713.91,4261386.6],[733857.91,4261450.6],[733901.91,4261486.6],[733926.91,4261555.59],[733927.91,4261654.6],[734053.92,4261762.6],[734088.92,4261858.6],[734115.92,4261890.6],[734247.92,4261949.59],[734396.92,4262043.59],[734451.93,4262099.59],[734498.92,4262181.59],[734601.93,4262200.59],[734721.93,4262254.58],[734922.94,4262413.58],[735157.94,4262588.58],[735386.95,4262739.57],[735370.95,4262800.58],[735241.95,4262974.58],[735141.95,4263017.58],[735108.94,4263059.58],[735112.95,4263128.58],[735169.95,4263226.58],[735190.95,4263286.58],[735176.95,4263340.58],[735098.95,4263378.58],[735077.95,4263411.58],[735112.95,4263460.58],[735236.95,4263485.58],[735184.95,4263542.58],[735182.95,4263609.58],[735199.95,4263806.58],[735160.96,4263838.58],[735075.96,4263942.59],[734989.95,4263932.59],[734880.95,4263883.59],[734840.95,4263891.59],[734828.95,4263951.59],[734848.95,4264016.6],[734799.95,4264039.59],[734748.95,4264109.6],[734782.95,4264306.6],[734782.95,4264353.6],[734667.95,4264339.6],[734624.95,4264350.6],[734558.95,4264412.6],[734375.95,4264559.61],[734277.95,4264584.61],[734294.95,4264492.61],[734248.94,4264453.61],[734127.94,4264452.62],[733993.94,4264419.62],[733943.94,4264425.62],[733911.94,4264482.62],[733962.94,4264581.62],[733905.94,4264610.62],[733792.94,4264640.62],[733705.94,4264686.63],[733585.94,4264709.63],[733525.94,4264739.63],[733561.94,4264809.63],[733569.94,4264921.63],[733497.94,4265072.64],[733521.94,4265194.64],[733508.93,4265253.63],[733426.94,4265290.64],[733383.94,4265393.64],[733392.93,4265535.64],[733376.94,4265559.64],[733282.93,4265577.64],[733309.93,4265723.65],[733277.93,4265788.65],[733179.93,4265782.65],[733141.93,4265668.65],[733094.93,4265668.65],[733032.93,4265738.65],[733083.93,4265839.65],[733044.93,4265894.65],[732943.93,4265899.65],[732894.93,4265989.65],[732774.93,4266004.66],[732626.93,4266131.66],[732602.93,4266174.66],[732629.93,4266235.66],[732682.93,4266278.66],[732673.93,4266333.66],[732622.93,4266476.65],[732606,4266560.66],[732577,4266595.66],[732450,4266680.66],[732413,4266728.66],[732318,4266768.67],[732274,4266801.66],[732239,4266936.67],[732181,4267016.67],[732191,4267071.67],[732135,4267121.67],[732088,4267237.67],[731975,4267271.67],[731876,4267319.67],[731855,4267367.67],[731717,4267438.68],[731595,4267603.68],[731525,4267681.68],[731424,4267752.68],[731358,4267782.68],[731205,4267786.68],[730965,4267806.69],[730896,4267762.69],[730637,4267867.69],[730510,4267834.69],[730483,4268051.69],[730320,4268161.69],[730142,4268263.69],[729932.01,4268690.69],[729845.01,4268738.69],[729734.01,4268768.69],[729512.01,4268794.69],[729379,4268716.7],[729272,4268596.7],[729182,4268563.7],[729025,4268536.7],[728841.99,4268524.7],[728751.99,4268532.71],[728653,4268557.71],[728544.99,4268591.71],[728548.99,4268532.71],[728703,4268270.02],[728778,4268173.71],[728788.93,4268123.34],[728810.94,4267855.68],[728757.96,4267823.62],[728697.99,4267637.71],[728647.98,4267539.71],[728571.95,4267438.59],[728364.4,4267261.21],[728353.97,4267189.71],[728317.97,4267108.72],[728129.96,4266846.72],[728119.96,4266745.72],[728116.96,4266580.72],[728100.96,4266425.72],[728060.96,4266261.72],[728242.95,4265971.72],[728111.95,4265749.72],[727886.94,4265493.73],[727807.94,4265419.73],[727781.93,4265181.72],[727718.93,4265054.73],[727717.93,4264976.73],[727654.93,4264859.73],[727611.92,4264527.73],[727528.92,4264350.74],[727502.92,4264251.74],[727522.92,4264143.73],[727448.91,4264003.73],[727443.92,4263874.73],[727371.91,4263598.73],[727442.91,4263428.72],[727442.91,4263217.73],[727427.91,4263172.72],[727310.91,4263102.72],[727274.91,4263050.72],[727263.9,4262974.72],[727228.9,4262889.72],[727139.9,4262764.72],[727015.9,4262655.72],[726895.9,4262575.72],[726830.9,4262488.72],[726777.89,4262324.72],[726719.89,4262233.72],[726655.88,4262074.72],[726602.89,4261999.72],[726518.89,4261959.72],[726353.89,4261949.72],[726247.88,4261875.73],[726223.88,4261803.72],[726227.88,4261721.72],[726164.88,4261647.73],[725913.88,4261560.73],[725893.87,4261373.73],[725872.87,4261271.73],[725843.88,4261238.73],[725668.88,4261222.73],[725352.87,4261109.73],[725028.87,4261006.74],[724740.86,4260952.74],[724698.87,4260783.74],[724684.87,4260680.74],[724652.87,4260597.74],[724636.86,4260441.74],[724530.86,4260384.74],[724481.87,4260326.74],[724408.87,4260184.74],[724342.86,4259887.74],[724279.86,4259774.74],[724199.86,4259707.74],[724051.86,4259613.74],[724051.8,4259613.74],[724075.8,4259523.74],[724004.8,4259411.74],[723884.8,4259244.74],[723867.79,4259079.74],[725416.8,4259346.72],[725432.8,4259139.72],[725422.79,4258945.71],[725406.78,4258032.71],[725398.78,4257928.71],[725377.78,4257822.71],[725312.78,4257602.71],[725298.77,4257455.71],[725273.77,4257342.71],[725248.77,4257098.71],[725195.76,4256854.7],[725146.76,4256715.7],[725179.75,4256628.7],[725236.75,4256505.7],[725257.75,4256448.7],[725321.75,4256432.7],[725444.75,4256411.69],[725553.75,4256379.69],[725637.75,4256339.69],[725839.75,4256223.69],[726003.75,4256093.68],[726053.74,4256008.68],[726064.74,4255856.68],[726118.74,4255724.68],[726229.73,4255489.67],[726274.73,4255357.67],[726332.73,4255225.67],[726373.73,4255076.67],[726372.72,4254996.67],[726351.72,4254907.67],[726288.72,4254790.67],[726169.71,4254618.67],[726073.22,4254496.18],[726024.48,4254532.79],[725957.21,4254444.93],[725947.05,4254398.05],[725787.14,4254174],[725561.79,4253883.08],[725615.74,4253785.57],[725630.66,4253454.33],[725570.68,4252988.67],[725528.67,4252777.67],[725463.28,4252532.12],[725525.62,4252519.19],[725487.69,4252339.36],[725479.9,4252318.53],[725479.6,4252317.51],[725477.58,4252310.61],[725484.14,4252268.49],[725495.79,4252188.17],[725516.39,4252051.55],[725692.14,4251936.22],[726385.65,4251525.77]],[[728576.79,4256911.65],[728508.79,4256923.65],[728441.79,4256975.65],[728425.79,4257032.65],[728494.79,4257079.65],[728547.79,4257022.65],[728603.79,4256996.65],[728617.79,4256953.65],[728576.79,4256911.65]]]},"properties":{"DPTOCRC":"17","NOMBRE":"CAMPELLO","ZONA_COD":"1706","DEPARTAMENTO":"ALICANTE - SAN JUAN"}},{"type":"Feature","geometry":{"type":"Polygon","coordinates":[[[715287.87,4261208.77],[715489.2,4261254.36],[715712.77,4261304.86],[715940.79,4261511.86],[715973.77,4261789.86],[716026.78,4261814.86],[716250.77,4261880.85],[716342.78,4261918.85],[716399.78,4261918.85],[716496.78,4261885.85],[716554.78,4261907.85],[716588.78,4261959.85],[716773.78,4261996.85],[716880.78,4262036.85],[717090.78,4261916.85],[717205.78,4261748.85],[717286.78,4261682.84],[717421.78,4261618.84],[717508.78,4261546.84],[717614.78,4261487.84],[717671.78,4261492.84],[717843.78,4261538.84],[717948.78,4261588.84],[718001.78,4261637.84],[718083.78,4261765.84],[718124.78,4261807.84],[718285.79,4261848.84],[718470.79,4261851.83],[718544.79,4261868.83],[718765.79,4261969.83],[718910.79,4262060.83],[719199.79,4262212.83],[719443.79,4262320.83],[719760.79,4262453.83],[719861.79,4262522.82],[720104.8,4262713.82],[720245.81,4262800.8],[720379.8,4262866.82],[720673.8,4263042.83],[720765.8,4263126.82],[720887.8,4263217.82],[721054.8,4263362.82],[721177.8,4263479.82],[721302.81,4263543.82],[721814.81,4263667.81],[721940.81,4263691.81],[722177.81,4263716.81],[722225.81,4263739.81],[722430.81,4263902.8],[722516.82,4264010.81],[722522.81,4264190.81],[722539.82,4264267.81],[722616.82,4264365.81],[722665.82,4264395.8],[722743.82,4264477.8],[722686.82,4264576.8],[722554.83,4264733.8],[722536.83,4264767.8],[722605.83,4264904.8],[722515.83,4264953.8],[722511.83,4264977.8],[722620.83,4265107.8],[722764.83,4265196.8],[722878.84,4265228.8],[723007.84,4265312.79],[723043.84,4265362.79],[723116.84,4265406.79],[723181.9,4265411.79],[723203.9,4265498.79],[723247.91,4265574.79],[723272.91,4265648.78],[723336.91,4265697.78],[723323.85,4265741.78],[723247.88,4265702.8],[723243.91,4265751.78],[723269.91,4265805.78],[723407.92,4265906.78],[723422.91,4265958.77],[723486.85,4265890.78],[723530.91,4265884.78],[723599.91,4265922.78],[723613.92,4265976.77],[723664.92,4266069.78],[723665.92,4266191.78],[723682.92,4266263.78],[723717.92,4266300.77],[723790.92,4266319.77],[723796.92,4266376.77],[723762.93,4266426.77],[723814.93,4266545.77],[723768.93,4266654.77],[723635.93,4266673.77],[723638.93,4266785.77],[723630.94,4266985.77],[723669.93,4267029.77],[723727.93,4267038.77],[723793.93,4267108.77],[723811.94,4267193.77],[723912.94,4267234.76],[723963.94,4267268.76],[723952.94,4267321.77],[723834.93,4267300.78],[723806.94,4267337.77],[723899.94,4267401.77],[723902.94,4267451.77],[723796.95,4267486.77],[723781.94,4267522.77],[723844.95,4267627.76],[723862.95,4267785.77],[723836.95,4267997.76],[723864.95,4268057.76],[723830.96,4268118.76],[723886.96,4268162.76],[723970.95,4268150.76],[724080.9,4268162.76],[724153.96,4268105.76],[724295.96,4268225.75],[724345.96,4268297.76],[724388.96,4268305.75],[724420.96,4268382.75],[724413.96,4268451.75],[724488.97,4268561.75],[724587.97,4268602.75],[724612.97,4268627.75],[724617.97,4268703.75],[724648.97,4268753.75],[724840.97,4268851.75],[725009.97,4268877.74],[725387.91,4268825.74],[725563.92,4268824.74],[725618.97,4268786.74],[725709.97,4268809.73],[726145.98,4268887.73],[726489.99,4268973.73],[726617.98,4269012.73],[726618.58,4269016.79],[726630.99,4269100.72],[726672.99,4269278.72],[726719.99,4269432.72],[726858,4269650.72],[726898,4269740.72],[726921,4269924.72],[726917.01,4270008.72],[726957,4270078.72],[726956.01,4270133.72],[727011,4270245.72],[727022.01,4270362.72],[726913.01,4270514.72],[726927.01,4270687.71],[727057.02,4270788.71],[727081.02,4271018.71],[727077.02,4271083.7],[726951.02,4271246.71],[726875.02,4271389.71],[726794.02,4271474.71],[726725.02,4271494.71],[726551.02,4271498.71],[726490.02,4271577.71],[726432.02,4271625.71],[726354.02,4271665.71],[726263.02,4271693.71],[726179.02,4271888.71],[726205.02,4271968.72],[726135.02,4272121.71],[725857.02,4272558.71],[725730.02,4272651.71],[725844.03,4272860.71],[725893.03,4272889.71],[726078.03,4272955.71],[726148.03,4272950.71],[726376.04,4273128.71],[726546.04,4273286.7],[726790.05,4273566.69],[727162.05,4274104.69],[727227.05,4274178.69],[727356.06,4274242.69],[727594.06,4274292.68],[727695.07,4274322.68],[727816.06,4274412.68],[728098.07,4274528.68],[728226.07,4274539.68],[728452.07,4274638.67],[728533.07,4274653.67],[728414.08,4274909.67],[728340.08,4275098.67],[728323.08,4275251.67],[728341.08,4275316.67],[728631.08,4275378.66],[728830.09,4275455.66],[729143.09,4275610.66],[729358.1,4275724.66],[729431.1,4275771.66],[729468.1,4275816.66],[729499.1,4275951.65],[729508.1,4276116.65],[729527.11,4276173.65],[729568.1,4276222.65],[729700.11,4276256.65],[729874.11,4276267.65],[729988.11,4276284.65],[730086.11,4276362.65],[730167.12,4276553.65],[730359.12,4276697.64],[730400.12,4276735.64],[730408.94,4276783.75],[730541.51,4276926.35],[730555.31,4276952.08],[730762.99,4277100.77],[730738.88,4277135.21],[730734.13,4277203.64],[730677.13,4277329.64],[730619.13,4277396.64],[730545.13,4277412.64],[730446.13,4277353.64],[730387.13,4277346.64],[730277.12,4277445.64],[730185.13,4277459.64],[730080.12,4277430.65],[730041.12,4277448.64],[730009.12,4277503.64],[729961.13,4277522.64],[729835.12,4277537.65],[729790.12,4277566.65],[729635.12,4277580.65],[729531.12,4277659.65],[729492.12,4277669.65],[729430.12,4277614.65],[729316.11,4277607.66],[729170.12,4277631.65],[729142.11,4277605.65],[729023.11,4277601.65],[728985.11,4277510.65],[728890.11,4277546.65],[728819.11,4277553.66],[728754.11,4277539.66],[728665.11,4277576.66],[728614.11,4277511.66],[728548.11,4277517.66],[728497.11,4277492.66],[728455.11,4277530.66],[728405.1,4277531.66],[728361.1,4277482.65],[728236.1,4277434.66],[728137.1,4277422.66],[728028.1,4277380.67],[727956.1,4277443.66],[727903.1,4277446.67],[727758.1,4277383.67],[727707.1,4277428.67],[727588.09,4277424.67],[727547.09,4277444.67],[727501.09,4277546.67],[727433.09,4277508.67],[727381.09,4277631.67],[727305.09,4277737.67],[727207.09,4277812.67],[727131.09,4277904.67],[726901.09,4278026.67],[726717.09,4278232.68],[726640.09,4278298.68],[726548.09,4278398.68],[726401.09,4278603.68],[726309.09,4278743.68],[725937.09,4278860.69],[725826.09,4278883.69],[725721.09,4278923.69],[725650.09,4278983.69],[725471.09,4279238.69],[725523.09,4279254.69],[725583.09,4279310.69],[725636.09,4279317.69],[725673.09,4279351.69],[725700.09,4279426.69],[725659.09,4279520.69],[725596.09,4279520.69],[725478.09,4279409.69],[725356.09,4279397.69],[725283.09,4279358.7],[725181.09,4279384.69],[724901.09,4279642.7],[724789.1,4279757.7],[724770.1,4279758.7],[724709.09,4279638.7],[724542.1,4279379.7],[724424.1,4279419.71],[724369.09,4279450.7],[724305.1,4279418.71],[724065.09,4279359.7],[723933.09,4279317.71],[723884.1,4279324.71],[723789.09,4279406.71],[723808.1,4279514.71],[723640.1,4279374.71],[723623.1,4279350.71],[723466.09,4278931.71],[723348.09,4278901.72],[723277.09,4278767.72],[723151.09,4278621.72],[723082.09,4278576.72],[722966.09,4278538.72],[722733.09,4278476.73],[722554.03,4278487.73],[722434.03,4278362.73],[722359.03,4278376.73],[722239.03,4278422.73],[721975.03,4278539.74],[721921.04,4278578.74],[721790.04,4278757.74],[721643.04,4278899.74],[721510.04,4279090.74],[721259.05,4279388.75],[721142.05,4279470.75],[721064.05,4279501.75],[721091.05,4279781.75],[721093.05,4279892.75],[720668.05,4280156.75],[720553.05,4280093.75],[720436.05,4280015.75],[720414.05,4280137.75],[720360.05,4280163.75],[720345.05,4280229.75],[720390.05,4280279.75],[720430.06,4280381.76],[720397.05,4280484.75],[720394.06,4280555.75],[720361.06,4280643.75],[720362.06,4280755.75],[720333.06,4280837.75],[720432.06,4280919.75],[720336.06,4281038.75],[720284.06,4281072.75],[720196.06,4281010.75],[720028.05,4280810.75],[719930.06,4280640.75],[719894.05,4280599.75],[719775.05,4280551.76],[719627.05,4280476.76],[719352.04,4280310.76],[719108.04,4280170.76],[719044.04,4280112.76],[719021.04,4280068.76],[719007.04,4279952.76],[718990.04,4279688.76],[718985.03,4279257.76],[718988.03,4279041.76],[719000.03,4278946.76],[718991.03,4278867.76],[718947.02,4278739.76],[718780.02,4278660.76],[718735.02,4278582.76],[718583.01,4278224.77],[718483.01,4278036.76],[718413.01,4277940.76],[718315.01,4277833.77],[718029,4277611.76],[717887,4277458.77],[717707.99,4277195.77],[717487.99,4277044.77],[717310.99,4276899.77],[717013.98,4276558.78],[716872.98,4276380.78],[716776.98,4276295.78],[716666.98,4276221.78],[716519.97,4276139.78],[716413.97,4276099.78],[716218.97,4276045.78],[715937.96,4275914.78],[715658.96,4275777.78],[715535.96,4275698.78],[715438.96,4275649.78],[715335.96,4275630.78],[715074.95,4275525.78],[714956.95,4275487.79],[714905.95,4275455.78],[714755.94,4275316.79],[714540.94,4275172.78],[714479.94,4275144.79],[714309.94,4275136.79],[714031.93,4275083.79],[713940.93,4275081.79],[713845.93,4274995.79],[713744.93,4274959.79],[713644.93,4274965.79],[713531.93,4274892.79],[713347.92,4274824.79],[713273.92,4274785.79],[713146.92,4274693.79],[713014.92,4274637.79],[712763.91,4274519.79],[712470.91,4274389.79],[712183.9,4274250.79],[712109.9,4274224.79],[711612.9,4274257.8],[711551.9,4274266.79],[711461.9,4274218.79],[711207.89,4274041.79],[711308.89,4273917.8],[711393.89,4273955.79],[711577.9,4273895.8],[711667.9,4273853.8],[711839.9,4273748.8],[711883.9,4273740.8],[712056.9,4273815.79],[712103.9,4273819.79],[712191.9,4273788.79],[712285.9,4273826.79],[712327.91,4273813.79],[712517.9,4273786.79],[712616.91,4273706.79],[712643.91,4273702.8],[712775.91,4273763.79],[712715.91,4273524.8],[712664.9,4273345.79],[712673.9,4273258.8],[712830.9,4272912.8],[712835.9,4272872.8],[712804.9,4272761.8],[712766.9,4272679.8],[712698.9,4272612.8],[712671.9,4272431.8],[712636.9,4272371.8],[712519.9,4272216.8],[712425.89,4272046.8],[712384.89,4271990.8],[712312.89,4271953.8],[712105.89,4271922.8],[712037.89,4271902.8],[711951.89,4271853.81],[711787.89,4271741.81],[711632.89,4271620.81],[711421.88,4271431.81],[711395.92,4271424.82],[711290.94,4271478.81],[711192.94,4271515.81],[711071.88,4271519.81],[710977.88,4271469.81],[710894.88,4271396.8],[710881.88,4271349.82],[710754.94,4271397.8],[710496.93,4271506.81],[710330.93,4271608.8],[710171.93,4271673.8],[710059.93,4271731.8],[709994.88,4271680.8],[709917.88,4271542.8],[709836.93,4271544.8],[709735.88,4271578.8],[709702.88,4271564.8],[709669.88,4271476.8],[709635.88,4271470.8],[709526.88,4271380.8],[709468.9,4271367.81],[709381.88,4271393.81],[709320.88,4271297.8],[709317.87,4271201.81],[709196.87,4271172.8],[709126.88,4271058.81],[708990.87,4271038.8],[708991.88,4270926.81],[708913.88,4270853.81],[708858.87,4270751.81],[708749.87,4270694.81],[708670.87,4270517.81],[708637.87,4270489.81],[708522.87,4270450.81],[708414.87,4270431.81],[708107.87,4270287.81],[707789.87,4270016.81],[706300.85,4268811.84],[706172.85,4268611.84],[705772.84,4268022.85],[705563.83,4267723.86],[705329.84,4267458.87],[705276.83,4267413.86],[705137.84,4267386.86],[705028.83,4267328.87],[704960.83,4267264.87],[704958.83,4267206.87],[704979.83,4266933.88],[704908.83,4266843.88],[704420.83,4266728.88],[703953.83,4266632.88],[704046.83,4266415.89],[704042.83,4266355.88],[703981.83,4266238.89],[703971.83,4266191.89],[704013.83,4265950.89],[704113.82,4265849.89],[704265.87,4265879.89],[704361.82,4265857.89],[704419.82,4265801.89],[704452.82,4265746.89],[704437.82,4265631.89],[704499.82,4265387.9],[704580.81,4265270.9],[704563.82,4265141.9],[704821.81,4265100.9],[704977.81,4264938.9],[705027.81,4264900.9],[705139.81,4264865.9],[705262.8,4264770.91],[705353.8,4264712.9],[705502.8,4264661.9],[705667.8,4264544.91],[705726.8,4264513.9],[705841.8,4264497.91],[705922.85,4264498.9],[706090.81,4264521.9],[706224.79,4264442.9],[706335.79,4264324.91],[706417.79,4264268.91],[706500.79,4264233.91],[706540.79,4264202.91],[706553.79,4264118.91],[706556.78,4263784.92],[706655.77,4263250.92],[706986.77,4262768.92],[707021.76,4262369.93],[707050.76,4262340.93],[707255.76,4262245.92],[707289.76,4262210.93],[707319.75,4262126.93],[707438.75,4262043.92],[707508.75,4261919.93],[707539.75,4261831.92],[707617.75,4261661.92],[707633.75,4261586.93],[708069.75,4261361.92],[708077.8,4261360.99],[708080.69,4261360.66],[709742.81,4261167.91],[709794.81,4261162.91],[710224.81,4261194.91],[711207.83,4261521.89],[711524.83,4261679.89],[712647.8,4261994.87],[713172.77,4261671.88],[713330.78,4261577.88],[713766.77,4261467.87],[714440.77,4261440.87],[714578.77,4261277.87],[714664.77,4261190.87],[714679.77,4261136.87],[714758.77,4261040.87],[714843.77,4261009.87],[714913.77,4261033.87],[715067.77,4261049.86],[715144.77,4261086.86],[715242.77,4261177.86],[715287.77,4261208.86],[715287.87,4261208.77]]]},"properties":{"DPTOCRC":"17","NOMBRE":"JIJONA","ZONA_COD":"1707","DEPARTAMENTO":"ALICANTE - SAN JUAN"}},{"type":"Feature","geometry":{"type":"Polygon","coordinates":[[[724076.23,4251844.67],[724056.9,4251851.33],[723757.92,4251977.81],[723546.78,4252093.69],[723373.74,4252177.3],[723319.77,4252291.07],[723235.63,4252423.36],[723211.82,4252505.91],[723150.96,4252568.89],[722980.2,4252662.3],[722771.15,4252787.28],[722567.62,4252805.77],[722269.66,4252821.71],[722291.67,4253376.72],[722318.68,4253639.72],[722754.68,4253835.72],[722857.68,4253887.71],[723149.69,4254094.72],[723417.83,4254275.41],[723444.87,4254227.6],[723636.55,4254459.39],[723684.5,4254430.5],[723866.71,4254757.7],[724452.72,4254971.7],[725097.74,4255796.7],[725125.74,4255888.7],[725176.75,4256257.7],[725195.75,4256308.7],[725266.75,4256371.69],[725257.75,4256448.7],[725236.75,4256505.7],[725179.75,4256628.7],[725146.76,4256715.7],[725195.76,4256854.7],[725248.77,4257098.71],[725273.77,4257342.71],[725298.77,4257455.71],[725312.78,4257602.71],[725377.78,4257822.71],[725398.78,4257928.71],[725406.78,4258032.71],[725422.79,4258945.71],[725432.8,4259139.72],[725416.8,4259346.72],[723867.79,4259079.74],[723884.8,4259244.74],[724004.8,4259411.74],[724075.8,4259523.74],[724051.86,4259613.74],[724199.86,4259707.74],[724279.86,4259774.74],[724342.86,4259887.74],[724408.87,4260184.74],[724481.87,4260326.74],[724530.86,4260384.74],[724636.86,4260441.74],[724652.87,4260597.74],[724684.87,4260680.74],[724698.87,4260783.74],[724740.87,4260952.74],[725028.87,4261006.73],[725352.87,4261109.73],[725668.88,4261222.73],[725843.88,4261238.73],[725872.87,4261271.73],[725893.87,4261373.73],[725913.88,4261560.73],[726164.88,4261647.73],[726227.88,4261721.72],[726223.88,4261803.72],[726247.88,4261875.73],[726353.89,4261949.72],[726518.89,4261959.72],[726602.89,4261999.72],[726655.88,4262074.72],[726719.89,4262233.72],[726777.89,4262324.72],[726830.9,4262488.72],[726895.9,4262575.72],[727015.9,4262655.72],[727139.9,4262764.72],[727228.9,4262889.72],[727263.9,4262974.72],[727274.91,4263050.72],[727310.91,4263102.72],[727427.91,4263172.72],[727442.91,4263217.73],[727442.91,4263428.72],[727371.91,4263598.73],[727443.92,4263874.73],[727448.92,4264003.73],[727522.92,4264143.73],[727502.92,4264251.74],[727528.92,4264350.74],[727611.92,4264527.73],[727654.93,4264859.73],[727717.93,4264976.73],[727718.93,4265054.73],[727781.93,4265181.72],[727807.94,4265419.73],[727886.94,4265493.73],[728111.95,4265749.72],[728242.95,4265971.72],[728060.96,4266261.72],[728100.96,4266425.72],[728116.96,4266580.72],[728119.96,4266745.72],[728129.96,4266846.72],[728317.97,4267108.72],[728353.97,4267189.71],[728364.4,4267261.21],[728571.95,4267438.59],[728647.98,4267539.71],[728697.99,4267637.71],[728757.96,4267823.62],[728810.94,4267855.68],[728788.93,4268123.34],[728778,4268173.71],[728703,4268270.02],[728548.99,4268532.71],[728544.99,4268591.71],[728516.75,4268644.58],[728505.95,4268664.84],[728274.93,4268621.71],[728300.94,4268446.71],[727667.89,4268590.78],[727594.99,4268593.71],[727440.98,4268484.72],[727358.98,4268399.72],[727279.51,4268290.44],[727158.9,4268164.85],[727104.99,4268140.82],[727106.98,4268285.72],[727022.98,4268380.72],[726907.98,4268470.72],[726878.98,4268506.72],[726794.98,4268716.73],[726747.98,4268807.72],[726664.98,4268926.73],[726617.98,4269012.73],[726489.99,4268973.73],[726145.98,4268887.73],[725709.97,4268809.73],[725618.97,4268786.74],[725563.92,4268824.74],[725387.91,4268825.74],[725009.97,4268877.74],[724840.97,4268851.75],[724648.97,4268753.75],[724617.97,4268703.75],[724612.97,4268627.75],[724587.97,4268602.75],[724488.97,4268561.75],[724413.96,4268451.75],[724420.96,4268382.75],[724388.96,4268305.75],[724345.96,4268297.76],[724295.96,4268225.75],[724153.96,4268105.76],[724080.9,4268162.76],[723970.95,4268150.76],[723886.96,4268162.76],[723830.96,4268118.76],[723864.95,4268057.76],[723836.95,4267997.76],[723862.95,4267785.77],[723844.95,4267627.76],[723781.94,4267522.77],[723796.95,4267486.77],[723902.94,4267451.77],[723899.94,4267401.77],[723806.94,4267337.77],[723834.93,4267300.78],[723952.94,4267321.77],[723963.94,4267268.76],[723912.94,4267234.76],[723811.94,4267193.77],[723793.93,4267108.77],[723727.93,4267038.77],[723669.93,4267029.77],[723630.94,4266985.77],[723638.93,4266785.77],[723635.93,4266673.77],[723768.93,4266654.77],[723814.93,4266545.77],[723762.93,4266426.77],[723796.92,4266376.77],[723790.92,4266319.77],[723717.92,4266300.77],[723682.92,4266263.78],[723665.92,4266191.78],[723664.92,4266069.78],[723613.92,4265976.77],[723599.91,4265922.78],[723530.91,4265884.78],[723486.85,4265890.78],[723422.91,4265958.77],[723407.92,4265906.78],[723269.91,4265805.78],[723243.91,4265751.78],[723233.91,4265711.78],[723247.88,4265702.8],[723323.85,4265741.78],[723336.91,4265697.78],[723272.91,4265648.78],[723247.91,4265574.79],[723203.9,4265498.79],[723181.9,4265411.79],[723116.84,4265406.79],[723043.84,4265362.79],[723007.84,4265312.79],[722878.84,4265228.8],[722764.83,4265196.8],[722620.83,4265107.8],[722511.83,4264977.8],[722515.83,4264953.8],[722605.83,4264904.8],[722536.83,4264767.8],[722554.83,4264733.8],[722686.82,4264576.8],[722743.82,4264477.8],[722665.82,4264395.8],[722616.82,4264365.81],[722539.82,4264267.81],[722522.81,4264190.81],[722516.82,4264010.81],[722430.81,4263902.8],[722225.81,4263739.81],[722177.81,4263716.81],[721940.81,4263691.81],[721814.81,4263667.81],[721302.81,4263543.82],[721177.8,4263479.82],[721054.8,4263362.82],[720887.8,4263217.82],[720765.8,4263126.82],[720673.8,4263042.83],[720379.8,4262866.82],[720245.81,4262800.8],[720104.8,4262713.82],[719861.79,4262522.82],[719760.79,4262453.83],[719443.79,4262320.83],[719199.79,4262212.83],[718910.79,4262060.83],[718765.79,4261969.83],[718544.79,4261868.83],[718470.79,4261851.83],[718285.79,4261848.84],[718124.78,4261807.84],[718083.78,4261765.84],[718001.78,4261637.84],[717948.78,4261588.84],[717843.78,4261538.84],[717671.78,4261492.84],[717614.78,4261487.84],[717508.78,4261546.84],[717421.78,4261618.84],[717286.78,4261682.84],[717205.78,4261748.85],[717090.78,4261916.85],[716880.78,4262036.85],[716773.78,4261996.85],[716588.78,4261959.85],[716554.78,4261907.85],[716496.78,4261885.85],[716399.78,4261918.85],[716342.78,4261918.85],[716250.77,4261880.85],[716026.78,4261814.86],[715973.77,4261789.86],[715940.79,4261511.86],[715712.77,4261304.86],[715489.2,4261254.36],[715287.87,4261208.77],[715287.74,4261208.74],[715491.8,4261013.74],[715472.73,4260802.8],[715603.77,4260734.86],[715711.76,4260127.86],[714125.76,4259711.88],[713594.74,4258810.88],[714568.74,4258124.88],[716384.72,4256918.84],[716518.72,4256755.84],[716586.72,4256705.84],[716774.72,4256621.84],[717701.71,4256139.82],[718344.71,4255604.81],[718933.93,4254635.86],[719000.1,4254628.86],[719038.46,4254588.38],[719066.53,4254418.13],[719630.66,4253491.76],[719630.68,4253491.76],[719960.66,4253361.76],[720055.66,4253540.76],[720421.67,4253782.75],[720405.68,4254094.76],[720489.68,4254158.76],[720855.69,4254407.75],[720931.69,4254453.75],[720962.87,4254450.97],[721062.52,4254349.85],[721056.69,4254320.75],[720968.67,4254150.81],[721043.44,4253857.66],[720809.16,4253678.87],[720610.19,4253489.43],[720672.74,4253346.98],[720910.32,4253048.39],[721093.41,4252875.88],[721216.71,4252795.97],[721305.61,4252820.85],[721479.62,4252725.2],[721506.07,4252726.79],[721582.61,4252666.39],[721588.71,4252667.92],[721601.41,4252671.38],[721663.33,4252686.61],[721939.82,4252751.44],[721987.97,4252759.11],[722193.75,4252806.36],[722212.67,4252760.23],[722236.05,4252626.35],[722237.53,4252468.81],[722172.54,4252373.69],[722172.34,4252308.92],[722259.93,4252179.99],[722260.55,4252096.14],[722285.1,4252048.69],[722468.27,4251956.13],[722484.14,4251912.23],[722598.38,4251886.31],[722706.58,4251825.35],[722791.13,4251881.37],[722864.79,4251859.44],[722904.6,4251761.89],[722724.6,4251621.93],[722661.61,4251371.62],[722557.09,4251040.46],[722587.94,4251000.85],[722595.47,4250936.57],[722566.52,4250869.42],[722515.4,4250800.15],[722495.51,4250736.04],[722460.29,4250663.36],[722431.37,4250621.2],[722435.83,4250594.15],[722497.5,4250529.25],[722524.66,4250493.56],[722597.04,4250381.13],[722741.44,4250268.79],[722847.25,4250208.48],[722956.47,4250161.5],[723007.39,4250254.4],[723032.31,4250342.5],[723091.54,4250451.09],[723118.99,4250477.95],[723218.49,4250646.53],[723278.04,4250704.95],[723383.45,4250754.76],[723464.86,4250834.02],[723590.31,4250885.3],[723646.08,4250939.38],[723707.64,4250936.54],[723825.78,4251142.4],[723930.45,4251349.22],[723977.62,4251397.95],[724033.22,4251560.24],[724053.4,4251694.54],[724053.01,4251766.49],[724069.57,4251816.35],[724076.23,4251844.67]]]},"properties":{"DPTOCRC":"17","NOMBRE":"MUCHAMIEL","ZONA_COD":"1708","DEPARTAMENTO":"ALICANTE - SAN JUAN"}},{"type":"Feature","geometry":{"type":"Polygon","coordinates":[[[725477.58,4252310.61],[725479.6,4252317.51],[725479.9,4252318.53],[725487.69,4252339.36],[725525.62,4252519.19],[725463.28,4252532.12],[725528.67,4252777.67],[725570.68,4252988.67],[725630.66,4253454.33],[725615.74,4253785.57],[725561.79,4253883.08],[725787.14,4254174],[725947.05,4254398.05],[725957.21,4254444.93],[726024.48,4254532.79],[726073.22,4254496.18],[726169.71,4254618.67],[726288.72,4254790.67],[726351.72,4254907.67],[726372.72,4254996.67],[726373.73,4255076.67],[726332.73,4255225.67],[726274.73,4255357.67],[726229.73,4255489.67],[726118.74,4255724.68],[726064.74,4255856.68],[726053.74,4256008.68],[726003.75,4256093.68],[725839.75,4256223.69],[725637.75,4256339.69],[725553.75,4256379.69],[725444.75,4256411.69],[725321.75,4256432.7],[725257.75,4256448.7],[725266.75,4256371.69],[725195.75,4256308.7],[725176.75,4256257.7],[725125.74,4255888.7],[725097.74,4255796.7],[724452.72,4254971.7],[723866.71,4254757.7],[723684.5,4254430.5],[723636.55,4254459.39],[723444.87,4254227.6],[723417.83,4254275.41],[723149.69,4254094.72],[722857.68,4253887.71],[722754.68,4253835.72],[722318.68,4253639.72],[722291.67,4253376.72],[722269.66,4252821.71],[722567.62,4252805.77],[722771.15,4252787.28],[722980.2,4252662.3],[723150.96,4252568.89],[723211.82,4252505.91],[723235.63,4252423.36],[723319.77,4252291.07],[723373.74,4252177.3],[723546.78,4252093.69],[723757.92,4251977.81],[724056.9,4251851.33],[724076.23,4251844.67],[724087.64,4251876.68],[724280.65,4251816.68],[724358.65,4251790.68],[724537.64,4251683.67],[724583.44,4251669.78],[724909.41,4251906.85],[725268.43,4252158.55],[725436.91,4252269.38],[725477.58,4252310.61]]]},"properties":{"DPTOCRC":"17","NOMBRE":"SAN JUAN","ZONA_COD":"1709","DEPARTAMENTO":"ALICANTE - SAN JUAN"}},{"type":"Feature","geometry":{"type":"Polygon","coordinates":[[[719534.37,4247773.55],[719555.94,4247813.3],[719569.81,4247842.66],[719575.87,4247842.59],[719737.18,4247948.25],[719733.18,4248035.7],[719870,4248037.51],[719889.56,4248037.58],[719902,4248038.08],[719930.68,4248038.58],[719989.56,4248039.74],[720036.06,4248040.74],[720009.68,4248180.54],[720008.88,4248239.49],[720171.88,4248238.58],[720207.19,4248270.9],[720070.51,4248400.33],[720096.95,4248480.19],[720121.69,4248506.94],[720156.45,4248570.65],[720178.19,4248612.15],[720212.45,4248678.83],[720173.95,4248694.58],[720127.38,4248714.44],[719990.76,4248702.94],[719995.26,4248847.85],[719889.57,4248841.65],[719887.89,4248919.55],[719841.02,4248916.8],[719834.02,4248989.84],[719761.69,4248985.66],[719571.02,4248949.91],[719537.39,4249020.41],[719397.32,4248935.75],[719474.57,4248803.75],[719203.95,4248866.46],[719181.63,4248901.26],[719111.32,4248857.6],[719152.45,4248791.76],[719214.95,4248693.2],[719139.26,4248646.06],[719123.32,4248636.26],[719092.57,4248617.26],[719139.19,4248541.76],[719152.26,4248521.21],[719156.45,4248513.81],[719170.19,4248492.09],[719165.41,4248381.95],[719366,4248252.84],[719422.43,4248160.72],[719404.25,4248148.6],[719364.86,4248005.65],[719360.31,4247906.42],[719341.38,4247851.13],[719334,4247826.91],[719357.18,4247791.75],[719368.44,4247775.7],[719427.94,4247774.34],[719475.25,4247773.95],[719534.37,4247773.55]]]},"properties":{"DPTOCRC":"19","NOMBRE":"CAMPOAMOR","ZONA_COD":"1901","DEPARTAMENTO":"ALICANTE"}},{"type":"Feature","geometry":{"type":"Polygon","coordinates":[[[717001.86,4239107.86],[716968.29,4239387.11],[716947.23,4239687.47],[716936.42,4239720.81],[716924.98,4240024.15],[716931.62,4240117.47],[716913.05,4240347.97],[716923.43,4240409.86],[716911.31,4240504.76],[716896.75,4240741.36],[716897.32,4240920.11],[716908.5,4240976.5],[716877.06,4241040],[716880.06,4241167.76],[716905.75,4241218.89],[716899.39,4241292.8],[716911.33,4241385.14],[716897.33,4241459.8],[716915.76,4241638.39],[716888.9,4241687.21],[716873.52,4241765.75],[716929.64,4241790.05],[716935.71,4241901.55],[717004.77,4242137.1],[717029.52,4242281.14],[717058.15,4242374.1],[717077.03,4242528.6],[717099.36,4242635.24],[717104.03,4242737.14],[717088.97,4242787.59],[717098.97,4242852.5],[717092.98,4242981.45],[717107.54,4243029.59],[717101.54,4243117.13],[717162.92,4243345.09],[717214.92,4243396.38],[717210.36,4243477.54],[717250.42,4243506.54],[717287.93,4243587.3],[717258.24,4243652.38],[717294.87,4243702.79],[717268.49,4243748.13],[717274.3,4243813.79],[717306.99,4243901.45],[717304.87,4243940.54],[717374.88,4244201.24],[717416.12,4244223.53],[717407.69,4244309.44],[717598.26,4244901.53],[717747.58,4245181.03],[717857.9,4245284.47],[717887.02,4245387.47],[717974.96,4245581.07],[718076.47,4245750.97],[718152.65,4245835.02],[718208.84,4245877.32],[718300.34,4245881.26],[718393.86,4245779.3],[718475.91,4246196.17],[718540.91,4246232.56],[718997.79,4246338.59],[719076.15,4246347.66],[718964.42,4246844.26],[718968.23,4246907.34],[718942.61,4247041.76],[718958.93,4247131.67],[718958.16,4247131.42],[718889.55,4247141.26],[718790.74,4247154.6],[718754.61,4247147.01],[718658.43,4247170.81],[718484.55,4247164.96],[718424.49,4247170.26],[718316.05,4247190.14],[718316.05,4247190.13],[718285.92,4247059.61],[718177.98,4247002.32],[718276.48,4246814.32],[718139.42,4246802.02],[717143.59,4246390.69],[717096.65,4246347.38],[717024.28,4246350.49],[716983.28,4246314.88],[716861.41,4246242.38],[716657.34,4246202.63],[716449.59,4246145.45],[716389.41,4246118.86],[716465.65,4246103.79],[716542.85,4246040.76],[716606.84,4245964.55],[716727.54,4245696.3],[716757.51,4245643.3],[716750.36,4245447.24],[716722.04,4245361.48],[716676.95,4245145.26],[716596.91,4244828.19],[716567.18,4244624.34],[716574.6,4244451.43],[716481.05,4244092.74],[716445.88,4244037.61],[716372.06,4243773.75],[716354.61,4243612.82],[716356.69,4243481.94],[716382.24,4243276.89],[716374.61,4243161.47],[716339.43,4243106.35],[716271.08,4243084.97],[716176.67,4243078.13],[715989.78,4243039.01],[715841.37,4242978.73],[715629.92,4242909.66],[715567.14,4242912.3],[715408.65,4242850.96],[715292.76,4242783.63],[715097.98,4242617.66],[715009.26,4242535.16],[714953.46,4242603.69],[714909.43,4242627.27],[714948.35,4242542.13],[715424,4241728.31],[715650.68,4241347.41],[715808.62,4241066.85],[715914.48,4240919.9],[715996.31,4240764.06],[716014.75,4240710.47],[716737.38,4239215.57],[716795.19,4239113.71],[717001.86,4239107.86]]]},"properties":{"DPTOCRC":"19","NOMBRE":"BABEL (ALICANTE)","ZONA_COD":"1902","DEPARTAMENTO":"ALICANTE"}},{"type":"Feature","geometry":{"type":"Polygon","coordinates":[[[708593.97,4252564.76],[708484.61,4252558.92],[708066.61,4252715.92],[707880.61,4252763.92],[707691.15,4252786.41],[707619.61,4252815.93],[707512.61,4252833.93],[707423.61,4252823.93],[706869.61,4252596.94],[706643.61,4252524.94],[706417.61,4252440.94],[706256.6,4252182.94],[706126.6,4251985.94],[706080.6,4251939.94],[705974.6,4251878.94],[705877.6,4251776.94],[705755.59,4251633.94],[705702.6,4251539.94],[705691.59,4251331.94],[705000.59,4251070.94],[704709.59,4250901.94],[704676.59,4250828.95],[704698.59,4250696.94],[705606.59,4248238.94],[705649.58,4248124.94],[705781.59,4247308.93],[706024.58,4246982.87],[706151.02,4246784.64],[706200.59,4246706.93],[706212.19,4246719.67],[706400.57,4246692.15],[706639.22,4246668.87],[706910.69,4246632.36],[707051.45,4246619.13],[707339.31,4246581.03],[707486.95,4246580.5],[707719.79,4246569.91],[708060.04,4246364.6],[708237.84,4246268.82],[708357.43,4246188.38],[708446.33,4246095.78],[708619.37,4245965.6],[708736.58,4245635.96],[709716.56,4244565.94],[709882.66,4244420.08],[710324.18,4244032.35],[711011.54,4243428.73],[711684.49,4242728.84],[711826.49,4242573.84],[711868.48,4242541.84],[712276.85,4242310.26],[712619.48,4242100.83],[712656.48,4242094.83],[713203.48,4242157.83],[713594.48,4242196.82],[714121.48,4242280.82],[714181.51,4242298.7],[714824.48,4242672.75],[714909.43,4242627.27],[714953.46,4242603.69],[715009.26,4242535.16],[715097.98,4242617.66],[715292.76,4242783.63],[715408.65,4242850.96],[715567.14,4242912.3],[715629.92,4242909.66],[715841.37,4242978.73],[715989.78,4243039.01],[716176.67,4243078.13],[716271.08,4243084.97],[716339.43,4243106.35],[716374.61,4243161.47],[716382.24,4243276.89],[716356.69,4243481.94],[716354.61,4243612.82],[716372.06,4243773.75],[716445.88,4244037.61],[716481.05,4244092.74],[716574.6,4244451.43],[716567.18,4244624.34],[716596.91,4244828.19],[716676.95,4245145.26],[716722.04,4245361.48],[716750.36,4245447.24],[716757.51,4245643.3],[716727.54,4245696.3],[716606.84,4245964.55],[716542.85,4246040.76],[716465.65,4246103.79],[716449.59,4246145.45],[716657.34,4246202.63],[716861.41,4246242.38],[716983.28,4246314.88],[717024.28,4246350.49],[717096.65,4246347.38],[717143.59,4246390.69],[718139.42,4246802.02],[718276.48,4246814.32],[718177.98,4247002.32],[718285.92,4247059.61],[718316.05,4247190.13],[718316.05,4247190.14],[718274.67,4247198.02],[718247.36,4247202.57],[718177.61,4247223.02],[717475.11,4247481.78],[716802.67,4247670.24],[716595.74,4247741.3],[716480.6,4247792.28],[716310.69,4247898.76],[716154.69,4248038.58],[715970.38,4248267.43],[715872.79,4248430.93],[715770.07,4248645.38],[715690.5,4248885.21],[715654.26,4249032.38],[715627.39,4249235.41],[715603.67,4249522.44],[715597.51,4249706.86],[715603.8,4249866.93],[715627.37,4250036.97],[715728.14,4250551.94],[715735.47,4250666.16],[715777.86,4250878.71],[715795.2,4250919.91],[715851.07,4251237.44],[715893.41,4251414.67],[715898.46,4251470.03],[715900.19,4251478.56],[715924.24,4251597.41],[715896.24,4251614.16],[715805.28,4251667.14],[715772.92,4251583.57],[715691.27,4251510.77],[715490.68,4251364.92],[715451.61,4251301.53],[715356.72,4250998.09],[715276.96,4250804.85],[715266.22,4250642.06],[715282.85,4250441.38],[715264.44,4250270.49],[715212.07,4250187.02],[715158.38,4250040.01],[715173.04,4249768.1],[715162.08,4249703.69],[715060.55,4249447.94],[715052.69,4249393.09],[715072.48,4249274.54],[715185.81,4249186.52],[715163.33,4248974.79],[715218.98,4248883.39],[715316.76,4248760.59],[715332.14,4248662.46],[715312.1,4248441.88],[715259.87,4248187.71],[715271.14,4248011.42],[715242.38,4247925.79],[715353.45,4247891.49],[715407.43,4247833.84],[715334.62,4247704.35],[715155.07,4247664.13],[715032.65,4247697.28],[714870.62,4247702.07],[714625.4,4247751.86],[714487.27,4247843],[714421.66,4248035.6],[714320.83,4248060.13],[714150.23,4248045.96],[713976.36,4247933.96],[713931.66,4247927.41],[713620.09,4247949.28],[713475.44,4247801.89],[713418.71,4247850.7],[713373.95,4247991.22],[713323.16,4248079.96],[713213.3,4248112.84],[713068.15,4248141.4],[712825.26,4248127.63],[712645.79,4248083.27],[712515.74,4248001],[712454.58,4247908.33],[712355.45,4247803.79],[712246.9,4247727.4],[711984.23,4247672.15],[711811.79,4247604.78],[711599.54,4247500.16],[711419.87,4247391.02],[711297.67,4247266.66],[711215.96,4247154.12],[711116.77,4247102.94],[710969.97,4247057.86],[710784.59,4247030.14],[710633.92,4246984.6],[710567.18,4246993.79],[710464.52,4246980.3],[710445.86,4246946.06],[710279.27,4246803.61],[710057.26,4246991.35],[709878.83,4247216.25],[709814.46,4247315.45],[709757.36,4247514.84],[709748.57,4247738.59],[709729.95,4247805.05],[709618.27,4247812.56],[709520.68,4247832.46],[709366.62,4247912.03],[709306.47,4247919.69],[709209.71,4247976.41],[709090.77,4248108.56],[708856.99,4248266.78],[708920.47,4248362.42],[708973.92,4248405.1],[709076.36,4248461.91],[709167.27,4248483.02],[709201.05,4248507.77],[709255.24,4248629.1],[709329.42,4248697.81],[709407.71,4248705.05],[709537.24,4248816.18],[709601.13,4248912.83],[709598.93,4249004.06],[709651.37,4249075.08],[709654.4,4249128.14],[709539.1,4249184.54],[709450.19,4249214.24],[709339.86,4249278.56],[709260.07,4249362.19],[709223.43,4249375.05],[709095.5,4249457.3],[709022.53,4249526.36],[708968.2,4249556.01],[708890.1,4249650.65],[708768.69,4249715.64],[708736.44,4249766.74],[708711.29,4249895.92],[708717.44,4250021.29],[709291.87,4250928.07],[709175.46,4251427.61],[709088.39,4251427.61],[709055,4251488.03],[708994.76,4251547.77],[708962.69,4251631.03],[709009.36,4251917.08],[708875.49,4252055.9],[708792.52,4252166.95],[708776.57,4252295.58],[708745.91,4252329.27],[708730.12,4252409.64],[708681.36,4252476.75],[708636.96,4252514.55],[708600.25,4252558.54],[708593.97,4252564.76]]]},"properties":{"DPTOCRC":"19","NOMBRE":"FLORIDA (ALICANTE)","ZONA_COD":"1903","DEPARTAMENTO":"ALICANTE"}},{"type":"Feature","geometry":{"type":"Polygon","coordinates":[[[715900.19,4251478.56],[715898.46,4251470.04],[715893.41,4251414.67],[715851.07,4251237.44],[715795.2,4250919.91],[715777.86,4250878.71],[715735.47,4250666.16],[715728.14,4250551.94],[715627.37,4250036.97],[715603.8,4249866.93],[715597.51,4249706.86],[715603.67,4249522.44],[715627.39,4249235.41],[715654.26,4249032.38],[715690.5,4248885.21],[715770.07,4248645.38],[715872.79,4248430.93],[715970.38,4248267.43],[716154.69,4248038.58],[716310.69,4247898.76],[716480.6,4247792.28],[716595.74,4247741.3],[716802.67,4247670.24],[717475.11,4247481.78],[718177.61,4247223.02],[718247.36,4247202.57],[718274.67,4247198.02],[718295.17,4247194.07],[718308.3,4247191.59],[718316.05,4247190.13],[718316.67,4247190.02],[718339.86,4247185.57],[718389.55,4247176.31],[718424.49,4247170.26],[718484.55,4247164.96],[718658.43,4247170.81],[718754.61,4247147.01],[718790.74,4247154.6],[718889.55,4247141.26],[718958.16,4247131.42],[718958.93,4247131.67],[718967.43,4247182.42],[718984.93,4247291.76],[719002.86,4247414.17],[718999.3,4247442.06],[719069.17,4247482.7],[719093.43,4247533.76],[719159.17,4247573.16],[719203.72,4247660.08],[719272.45,4247657.43],[719330.39,4247711.77],[719327.75,4247757.4],[719334,4247826.91],[719341.38,4247851.13],[719360.31,4247906.42],[719364.86,4248005.65],[719404.25,4248148.6],[719422.43,4248160.72],[719366,4248252.84],[719165.41,4248381.95],[719170.19,4248492.09],[719156.45,4248513.81],[719152.26,4248521.21],[719139.19,4248541.76],[719092.57,4248617.26],[719006.76,4248563.01],[718980.76,4248534.6],[718959.57,4248472.85],[718911.95,4248541.76],[718746.69,4248809.01],[718689.88,4248771.68],[718741.8,4248663.34],[718623.98,4248685.78],[718416.69,4248655.93],[718298.08,4248873.4],[718233.57,4248833.18],[718190.01,4248909.61],[718002.33,4249166.23],[717968.41,4249190.15],[717805.45,4249128.44],[717753.58,4249266.48],[717747.7,4249291.78],[717722.7,4249361.23],[717667.3,4249515.11],[717350.81,4249509.25],[717066.9,4249580.23],[716892.69,4249670.57],[716841.07,4249735.09],[716847.53,4250089.97],[716899.15,4250283.54],[716989.49,4250515.83],[716983.04,4250690.04],[716582.99,4251141.72],[716260.38,4251322.39],[715950.66,4251470.8],[715900.19,4251478.56]]]},"properties":{"DPTOCRC":"19","NOMBRE":"SAN BLAS (ALICANTE)","ZONA_COD":"1904","DEPARTAMENTO":"ALICANTE"}},{"type":"Feature","geometry":{"type":"Polygon","coordinates":[[[718867.33,4249467.92],[718859.2,4249491.61],[718758.46,4249463.52],[718700.9,4249653.27],[718598.28,4250016.27],[718103.58,4249831.44],[717826.14,4249730.53],[717771.08,4249703.28],[717660.67,4249533.53],[717667.3,4249515.11],[717722.7,4249361.23],[717747.7,4249291.78],[717753.58,4249266.48],[717805.45,4249128.44],[717968.41,4249190.15],[718002.33,4249166.23],[718190.01,4248909.61],[718233.57,4248833.18],[718298.08,4248873.4],[718416.69,4248655.93],[718623.98,4248685.78],[718741.8,4248663.34],[718743.88,4248681.46],[718689.88,4248771.68],[718746.69,4248809.01],[718911.95,4248541.76],[718959.57,4248472.85],[718979.95,4248475.26],[718974.19,4248502.35],[718980.76,4248534.6],[719006.76,4248563.01],[719092.57,4248617.26],[719123.32,4248636.26],[719139.26,4248646.06],[719214.95,4248693.2],[719152.45,4248791.76],[719133.26,4248823.06],[719111.32,4248857.6],[719095.19,4248883.6],[719079.45,4248908.96],[719037.7,4248976.92],[718910.52,4249176.85],[718978.02,4249219.67],[718877.89,4249379.67],[718845.83,4249461.59],[718867.33,4249467.92]]]},"properties":{"DPTOCRC":"19","NOMBRE":"LOS ANGELES (ALICANTE)","ZONA_COD":"1905","DEPARTAMENTO":"ALICANTE"}},{"type":"Feature","geometry":{"type":"Polygon","coordinates":[[[719111.32,4248857.6],[719181.63,4248901.26],[719203.95,4248866.46],[719474.57,4248803.75],[719397.33,4248935.75],[719537.39,4249020.41],[719571.02,4248949.91],[719761.69,4248985.66],[719834.02,4248989.84],[719841.02,4248916.8],[719887.89,4248919.55],[719889.57,4248841.65],[719995.26,4248847.85],[719990.76,4248702.94],[720127.38,4248714.44],[720173.95,4248694.58],[720212.45,4248678.83],[720261.83,4248774.33],[720151.64,4248828.83],[720187.46,4249065.49],[720111.7,4249541.79],[720341.38,4249573.34],[720329.74,4249686.58],[720305.71,4249686.58],[720272.05,4249936.4],[720262.28,4249936.49],[720252.97,4249936.15],[720049.97,4249917.99],[720041.47,4249918.94],[720012.15,4250097.01],[719902.62,4250146.5],[719832.36,4250162.3],[719827.98,4250298.3],[719777.14,4250302.75],[719797.48,4250394.84],[719752.59,4250433.39],[719744.37,4250514.83],[719680,4250510.23],[719686.71,4250577.21],[719671.67,4250661.52],[719541.22,4250643.11],[719536.29,4250642.67],[719457.22,4250632.3],[719460.98,4250623.16],[719475.16,4250583.31],[719478.22,4250573.05],[719512.21,4250332],[719575.09,4250005.25],[719459.47,4249971.25],[719480.03,4249882],[719381.11,4249868.91],[719366.53,4249944.7],[719239.37,4249942.37],[719130.68,4249919.81],[719030.88,4249876.04],[719093.46,4249612.56],[719052.26,4249533.09],[719012.7,4249508.06],[718960.27,4249494.21],[718889.58,4249474.01],[718867.33,4249467.93],[718845.83,4249461.59],[718877.89,4249379.67],[718978.02,4249219.67],[718910.52,4249176.85],[719111.32,4248857.6]]]},"properties":{"DPTOCRC":"19","NOMBRE":"PARQUE LO MORANT","ZONA_COD":"1906","DEPARTAMENTO":"ALICANTE"}},{"type":"Feature","geometry":{"type":"Polygon","coordinates":[[[721601.41,4252671.38],[721588.71,4252667.92],[721582.61,4252666.39],[721506.07,4252726.79],[721479.62,4252725.2],[721305.61,4252820.85],[721216.71,4252795.97],[721093.41,4252875.88],[720910.32,4253048.39],[720672.74,4253346.98],[720610.19,4253489.43],[720809.16,4253678.87],[721043.44,4253857.66],[720968.67,4254150.81],[721056.69,4254320.75],[721062.52,4254349.85],[720962.87,4254450.97],[720931.69,4254453.75],[720855.69,4254407.75],[720489.68,4254158.76],[720405.68,4254094.76],[720421.67,4253782.75],[720055.66,4253540.76],[719960.66,4253361.76],[719630.68,4253491.76],[719630.66,4253491.76],[719630.57,4253491.44],[719608.66,4253409.77],[719548.65,4253247.77],[719518.65,4253143.76],[719305.14,4253385.43],[719244.6,4253325.85],[719099.61,4253139.32],[719067.6,4253129.53],[718928.48,4253199.23],[718901.44,4253073.97],[718872.59,4253040.32],[718774.64,4252761.78],[719071.64,4252557.77],[718985.63,4252151.77],[718921.62,4251711.77],[718896.61,4251561.76],[718590.6,4250952.77],[718550.6,4250979.77],[718476.6,4250986.78],[718182.6,4250935.78],[717977.6,4250944.78],[717679.6,4250945.79],[717034.6,4250991.8],[716759.6,4251248.81],[716602.6,4251352.81],[716308.6,4251451.81],[716040.6,4251546.81],[715933.6,4251591.82],[715924.24,4251597.41],[715900.19,4251478.56],[715950.66,4251470.79],[716260.38,4251322.39],[716582.99,4251141.72],[716983.04,4250690.04],[716989.49,4250515.83],[716899.15,4250283.55],[716847.53,4250089.97],[716841.07,4249735.09],[716892.69,4249670.57],[717066.9,4249580.23],[717350.81,4249509.25],[717667.3,4249515.11],[717660.67,4249533.53],[717771.08,4249703.28],[717826.14,4249730.53],[718103.59,4249831.44],[718598.28,4250016.27],[718700.9,4249653.27],[718758.46,4249463.52],[718859.2,4249491.61],[718867.33,4249467.92],[718889.58,4249474.01],[718960.27,4249494.21],[719012.7,4249508.06],[719052.26,4249533.09],[719093.46,4249612.56],[719030.88,4249876.04],[719130.68,4249919.81],[719239.37,4249942.37],[719366.53,4249944.7],[719381.11,4249868.91],[719480.03,4249882],[719459.47,4249971.25],[719575.09,4250005.25],[719512.22,4250332],[719478.22,4250573.05],[719475.16,4250583.31],[719460.98,4250623.16],[719460.64,4250624],[719457.22,4250632.3],[719424.72,4250719.45],[719397.79,4250791.76],[719378.22,4250846.31],[719369.85,4250895.17],[719630.45,4250868.55],[719672.9,4251087.29],[719716.15,4251185.29],[719796.03,4251330.09],[719852.27,4251408.25],[719922.55,4251460.99],[720046.21,4251683.59],[720042.57,4251766.73],[720085.38,4251892.71],[720126.72,4251951.23],[720152.33,4252034.76],[720178.78,4252190.55],[720239.71,4252300.05],[720406.63,4252493.73],[720439.98,4252545.42],[720565.25,4252559.3],[720751.12,4252499.49],[720850.89,4252531.48],[721004.78,4252531.88],[721068.3,4252514.42],[721132.91,4252474.29],[721256.18,4252351.43],[721357.05,4252456.21],[721390.82,4252540.82],[721488.9,4252585.21],[721563.73,4252591.97],[721586.97,4252609.73],[721601.41,4252671.38]]]},"properties":{"DPTOCRC":"19","NOMBRE":"CIUDAD JARDIN (ALICANTE)","ZONA_COD":"1907","DEPARTAMENTO":"ALICANTE"}},{"type":"Feature","geometry":{"type":"Polygon","coordinates":[[[706633.71,4263369.92],[706556.78,4263784.92],[706553.79,4264118.91],[706540.79,4264202.91],[706472.79,4264061.91],[706430.78,4263964.92],[706425.79,4263907.91],[706300.78,4263793.92],[706198.79,4263720.92],[705716.78,4263527.92],[705540.78,4263471.92],[705220.79,4263536.92],[705047.79,4263529.92],[704872.79,4263476.92],[704600.79,4263369.92],[704467.79,4263265.93],[704477.79,4263215.93],[704566.78,4263171.92],[704573.78,4263092.93],[704566.78,4262971.93],[704597.78,4262872.93],[704604.78,4262792.93],[704576.78,4262673.93],[704613.77,4262605.93],[704678.77,4262535.93],[704664.77,4262406.93],[704679.77,4262330.93],[704561.77,4262187.93],[704456.76,4262096.94],[704454.76,4261967.93],[704427.76,4261883.94],[704410.75,4261738.94],[704394.75,4261712.94],[704302.75,4261658.94],[704304.75,4261553.94],[704285.75,4261488.94],[704221.75,4261359.95],[704202.74,4261242.94],[704233.74,4261185.94],[704125.74,4261080.95],[704067.74,4260945.95],[704066.74,4260894.95],[704026.73,4260852.95],[704012.73,4260775.95],[703962.73,4260679.95],[703874.73,4260589.95],[703798.73,4260569.95],[703749.73,4260530.95],[703642.72,4260489.96],[703615.73,4260361.96],[703596.72,4260337.96],[703502.72,4260304.96],[703470.72,4260254.96],[703442.72,4260138.96],[703406.72,4260074.96],[703313.72,4260121.96],[702970.71,4259850.97],[702541.71,4259649.97],[702331.7,4259562.97],[701741.69,4259331.98],[700197.66,4258476.01],[701861.62,4255494.99],[701919.62,4255391.99],[702889.62,4254703.98],[703432.62,4254188.97],[704001.62,4253581.96],[704670.62,4253375.96],[705522.61,4253006.95],[706417.56,4252440.97],[706417.61,4252440.94],[706643.61,4252524.94],[706869.61,4252596.94],[707423.61,4252823.93],[707512.61,4252833.93],[707619.61,4252815.93],[707691.15,4252786.41],[707880.61,4252763.92],[708066.61,4252715.92],[708484.61,4252558.92],[708541.61,4252559.91],[708593.97,4252564.76],[708876.6,4252590.91],[708961.6,4252587.9],[709151.61,4252648.9],[709334.61,4252720.9],[709538.6,4252703.9],[709639.61,4252771.9],[709778.41,4252842.33],[709861.2,4252809.56],[710003.99,4252795.03],[710139.61,4252804.89],[710224.61,4252793.89],[710369.6,4252757.88],[710536.14,4252797.8],[710623.61,4252799.88],[710757.76,4252784.19],[710901.91,4252813.18],[710989.08,4252816.59],[711166.84,4252797.79],[711269.39,4252772.15],[711317.11,4252744.44],[711516.62,4252720.93],[711549.52,4252860.58],[711515.52,4252893.5],[711408.93,4253041.9],[711367.76,4253046.16],[711206.12,4253156.68],[711133.52,4253150.75],[710993.61,4253173.83],[710889.62,4253151.88],[710487.62,4253445.89],[709869.63,4253922.84],[709643.97,4254210.78],[709095.66,4254828.79],[709080.65,4254883.92],[709099.64,4254953.83],[709014.78,4255129.79],[708992.65,4255198.92],[709004.65,4255271.92],[708945.65,4255315.92],[708855.62,4255431.02],[708744.03,4255509.78],[708737.66,4255571.93],[708787.66,4255623.93],[708790.62,4255661.05],[708665.66,4255789.93],[708656.66,4255892.93],[708566.66,4256037.93],[708564.67,4256085.93],[708588.65,4256205.06],[708655.67,4256279.93],[708756.67,4256332.93],[708766.67,4256420.93],[708712.67,4256566.94],[708750.68,4256705.93],[708839.68,4256813.94],[708893.68,4256902.93],[708907.68,4256995.93],[708959.69,4257088.94],[708995.69,4257201.94],[709040.69,4257237.94],[709095.69,4257339.94],[709112.69,4257474.94],[709139.69,4257511.94],[709219.7,4257552.94],[709218.69,4257627.94],[709271.7,4257715.93],[709340.7,4257749.94],[709407.7,4257760.94],[709456.7,4257876.93],[709598.71,4257936.93],[709626.71,4258000.93],[709691.71,4257991.93],[709763.71,4258045.93],[709728.71,4258134.93],[709737.71,4258213.93],[709777.71,4258254.93],[709765.71,4258326.93],[709788.72,4258421.93],[709837.72,4258467.93],[709895.72,4258653.92],[709894.72,4258703.92],[709973.72,4258768.93],[709967.72,4258857.92],[709996.72,4258938.92],[710087.72,4259007.92],[710133.73,4259138.93],[710163.67,4259185.19],[710151.73,4259271.92],[710111.73,4259294.92],[710091.73,4259417.92],[710071.73,4259448.92],[709951.73,4259564.92],[709930.74,4259643.92],[709883.73,4259677.92],[709825.73,4259682.92],[709833.73,4259736.92],[709794.73,4259796.92],[709742.73,4259793.92],[709695.74,4259877.92],[709547.74,4259903.92],[709435.74,4260000.92],[709375.74,4260085.92],[709277.74,4260142.92],[709214.74,4260263.92],[709172.74,4260244.92],[709133.74,4260294.92],[709118.74,4260367.92],[708987.74,4260474.92],[708830.74,4260626.92],[708622.73,4260725.98],[708521.76,4261032.87],[708343.11,4261162.92],[708069.75,4261361.92],[707633.75,4261586.93],[707617.75,4261661.92],[707539.75,4261831.92],[707508.75,4261919.93],[707438.75,4262043.92],[707319.75,4262126.93],[707289.76,4262210.93],[707255.76,4262245.92],[707050.76,4262340.93],[707021.76,4262369.93],[706986.77,4262768.92],[706655.77,4263250.92],[706633.71,4263369.92]]]},"properties":{"DPTOCRC":"19","NOMBRE":"AGOST","ZONA_COD":"1908","DEPARTAMENTO":"ALICANTE"}},{"type":"Feature","geometry":{"type":"Polygon","coordinates":[[[706200.59,4246706.93],[706151.02,4246784.64],[706024.58,4246982.87],[705781.59,4247308.93],[705649.59,4248124.94],[705606.59,4248238.94],[704698.59,4250696.94],[704676.59,4250828.95],[704709.59,4250901.94],[705000.59,4251070.94],[705691.59,4251331.94],[705702.6,4251539.94],[705755.59,4251633.94],[705877.6,4251776.94],[705974.6,4251878.94],[706080.6,4251939.94],[706126.6,4251985.94],[706256.6,4252182.94],[706417.61,4252440.94],[706417.56,4252440.97],[705522.61,4253006.95],[704670.62,4253375.96],[704001.62,4253581.96],[703432.62,4254188.97],[702889.62,4254703.98],[701919.62,4255391.99],[701861.62,4255494.99],[700197.66,4258476.01],[699948.66,4258642.01],[698973.66,4258538.02],[698215.64,4257818.03],[697768.62,4257343.04],[697786.6,4255297.03],[697914.59,4254273.02],[697979.58,4253565.02],[697971.57,4252811.01],[697365.54,4250839.01],[697079.54,4250628.01],[696973.55,4250577.01],[696998.54,4250431.01],[697050.54,4250339.01],[697269.54,4250185.01],[697298.54,4250139.01],[697292.54,4250048.01],[697251.54,4249941.01],[697247.54,4249837.01],[697269.54,4249791.01],[697347.54,4249698.02],[697504.54,4249580.01],[697633.54,4249444.01],[697756.55,4249296.01],[697802.55,4249224.01],[697830.55,4249137.01],[697835.55,4248995.01],[697878.55,4248883],[697918.55,4248724.01],[697958.55,4248466.01],[697980.55,4248377],[698065.55,4248246.01],[698161.55,4248169],[698203.55,4248158],[698266.55,4248182],[698341.55,4248267],[698388.55,4248260],[698439.55,4248214],[698547.55,4248061],[698649.55,4247996],[698794.56,4247959.99],[698836.56,4247912],[698835.55,4247842],[698744.56,4247670],[698733.56,4247594],[698756.55,4247518],[698860.56,4247371],[698845.56,4247301],[698739.56,4247220],[698646.56,4247186],[698575.55,4247097],[699057.56,4246613.99],[699122.56,4246513.99],[699196.56,4246431.99],[699294.56,4246261.99],[699937.56,4245633.98],[700132.57,4245297.98],[700263.56,4245035.98],[700444.56,4244709.98],[700512.56,4244566.98],[700614.56,4244587.97],[700744.56,4244593.97],[700828.56,4244649.97],[700932.56,4244769.97],[701168.56,4244754.97],[701364.57,4244783.97],[701854.57,4244830.96],[701959.57,4244850.96],[702261.58,4244940.96],[702381.58,4244983.95],[702535.58,4245019.95],[702836.58,4245105.95],[702920.58,4245199.95],[703029.58,4245370.95],[703236.58,4245520.95],[703815.58,4245762.95],[705792.58,4246303.93],[706200.59,4246706.93]]]},"properties":{"DPTOCRC":"19","NOMBRE":"MONFORTE DEL CID","ZONA_COD":"1909","DEPARTAMENTO":"ALICANTE"}},{"type":"Feature","geometry":{"type":"Polygon","coordinates":[[[715287.87,4261208.77],[715287.77,4261208.86],[715242.77,4261177.86],[715144.77,4261086.86],[715067.77,4261049.86],[714913.77,4261033.87],[714843.77,4261009.87],[714758.77,4261040.87],[714679.77,4261136.87],[714664.77,4261190.87],[714578.77,4261277.87],[714440.77,4261440.87],[713766.77,4261467.87],[713330.78,4261577.88],[713172.77,4261671.88],[712647.8,4261994.87],[711524.83,4261679.89],[711207.83,4261521.89],[710224.81,4261194.91],[709794.81,4261162.91],[709742.81,4261167.91],[708080.69,4261360.66],[708077.8,4261360.99],[708069.75,4261361.92],[708343.11,4261162.92],[708521.76,4261032.87],[708622.73,4260725.98],[708830.74,4260626.92],[708987.74,4260474.92],[709118.74,4260367.92],[709133.74,4260294.92],[709172.74,4260244.92],[709214.74,4260263.92],[709277.74,4260142.92],[709375.74,4260085.92],[709435.74,4260000.92],[709547.74,4259903.92],[709695.74,4259877.92],[709742.73,4259793.92],[709794.73,4259796.92],[709833.73,4259736.92],[709825.73,4259682.92],[709883.73,4259677.92],[709930.73,4259643.92],[709951.73,4259564.92],[710071.73,4259448.92],[710091.73,4259417.92],[710111.73,4259294.92],[710151.73,4259271.92],[710163.67,4259185.19],[710133.73,4259138.93],[710087.72,4259007.92],[709996.72,4258938.92],[709967.72,4258857.92],[709973.72,4258768.93],[709894.72,4258703.92],[709895.72,4258653.92],[709837.72,4258467.93],[709788.71,4258421.93],[709765.71,4258326.93],[709777.71,4258254.93],[709737.71,4258213.93],[709728.71,4258134.93],[709763.71,4258045.93],[709691.71,4257991.93],[709626.71,4258000.93],[709598.7,4257936.93],[709456.7,4257876.93],[709407.7,4257760.94],[709340.7,4257749.94],[709271.7,4257715.94],[709218.69,4257627.94],[709219.7,4257552.94],[709139.69,4257511.94],[709112.69,4257474.94],[709095.69,4257339.94],[709040.69,4257237.94],[708995.69,4257201.94],[708959.69,4257088.94],[708907.68,4256995.94],[708893.68,4256902.94],[708839.68,4256813.94],[708750.68,4256705.93],[708712.67,4256566.94],[708766.67,4256420.93],[708756.67,4256332.93],[708655.67,4256279.93],[708588.65,4256205.06],[708564.67,4256085.93],[708566.66,4256037.93],[708656.66,4255892.93],[708665.66,4255789.93],[708790.62,4255661.05],[708787.66,4255623.93],[708737.66,4255571.93],[708744.03,4255509.78],[708855.62,4255431.02],[708945.65,4255315.92],[709004.65,4255271.92],[708992.65,4255198.92],[709014.78,4255129.79],[709099.64,4254953.83],[709080.65,4254883.92],[709095.66,4254828.79],[709643.97,4254210.78],[709869.63,4253922.84],[710487.62,4253445.89],[710889.62,4253151.88],[710993.61,4253173.83],[711133.52,4253150.75],[711206.12,4253156.68],[711367.76,4253046.16],[711408.93,4253041.9],[711515.52,4252893.5],[711549.52,4252860.58],[711516.62,4252720.93],[711317.11,4252744.44],[711269.39,4252772.15],[711166.84,4252797.79],[710989.08,4252816.59],[710901.91,4252813.18],[710757.76,4252784.19],[710623.61,4252799.88],[710536.14,4252797.8],[710369.6,4252757.89],[710224.61,4252793.89],[710139.61,4252804.89],[710003.99,4252795.03],[709861.2,4252809.56],[709778.41,4252842.33],[709639.61,4252771.9],[709538.6,4252703.9],[709334.61,4252720.9],[709151.61,4252648.9],[708961.6,4252587.9],[708876.6,4252590.91],[708593.97,4252564.76],[708600.25,4252558.54],[708636.96,4252514.55],[708681.36,4252476.75],[708730.12,4252409.64],[708745.91,4252329.27],[708776.57,4252295.58],[708792.52,4252166.95],[708875.49,4252055.9],[709009.36,4251917.08],[708962.69,4251631.03],[708994.76,4251547.77],[709055,4251488.03],[709088.39,4251427.61],[709175.46,4251427.61],[709291.87,4250928.07],[708717.44,4250021.29],[708711.29,4249895.92],[708736.44,4249766.74],[708768.69,4249715.64],[708890.1,4249650.65],[708968.2,4249556.01],[709022.53,4249526.36],[709095.5,4249457.3],[709223.43,4249375.05],[709260.07,4249362.19],[709339.86,4249278.56],[709450.19,4249214.24],[709539.1,4249184.54],[709654.4,4249128.14],[709651.37,4249075.08],[709598.93,4249004.06],[709601.13,4248912.83],[709537.24,4248816.18],[709407.71,4248705.05],[709329.42,4248697.81],[709255.24,4248629.1],[709201.05,4248507.77],[709167.27,4248483.02],[709076.36,4248461.91],[708973.92,4248405.1],[708920.47,4248362.42],[708856.99,4248266.78],[709090.77,4248108.56],[709209.71,4247976.41],[709306.47,4247919.69],[709366.62,4247912.03],[709520.68,4247832.46],[709618.27,4247812.56],[709729.96,4247805.05],[709748.57,4247738.59],[709757.36,4247514.84],[709814.46,4247315.45],[709878.83,4247216.25],[710057.26,4246991.35],[710279.27,4246803.61],[710445.86,4246946.06],[710464.52,4246980.3],[710567.18,4246993.79],[710633.92,4246984.6],[710784.59,4247030.14],[710969.97,4247057.86],[711116.77,4247102.94],[711215.96,4247154.12],[711297.67,4247266.66],[711419.87,4247391.02],[711599.54,4247500.16],[711811.79,4247604.78],[711984.23,4247672.15],[712246.9,4247727.4],[712355.45,4247803.79],[712454.58,4247908.33],[712515.74,4248001],[712645.79,4248083.27],[712825.26,4248127.63],[713068.15,4248141.4],[713213.3,4248112.84],[713323.16,4248079.96],[713373.95,4247991.22],[713418.71,4247850.7],[713475.44,4247801.89],[713620.09,4247949.28],[713931.66,4247927.41],[713976.36,4247933.96],[714150.23,4248045.96],[714320.83,4248060.13],[714421.66,4248035.6],[714487.27,4247843],[714625.4,4247751.86],[714870.62,4247702.07],[715032.65,4247697.28],[715155.07,4247664.13],[715334.62,4247704.35],[715407.43,4247833.84],[715353.45,4247891.49],[715242.38,4247925.79],[715271.14,4248011.42],[715259.87,4248187.71],[715312.1,4248441.88],[715332.15,4248662.46],[715316.76,4248760.59],[715218.98,4248883.39],[715163.33,4248974.79],[715185.81,4249186.52],[715072.48,4249274.54],[715052.69,4249393.1],[715060.55,4249447.94],[715162.08,4249703.69],[715173.05,4249768.1],[715158.38,4250040.01],[715212.07,4250187.02],[715264.44,4250270.49],[715282.85,4250441.38],[715266.22,4250642.06],[715276.96,4250804.85],[715356.72,4250998.09],[715451.61,4251301.53],[715490.68,4251364.92],[715691.27,4251510.77],[715772.92,4251583.57],[715805.28,4251667.14],[715896.24,4251614.16],[715924.24,4251597.41],[715933.6,4251591.82],[716040.6,4251546.81],[716308.6,4251451.81],[716602.6,4251352.81],[716759.6,4251248.81],[717034.6,4250991.8],[717679.6,4250945.79],[717977.6,4250944.78],[718182.6,4250935.78],[718476.6,4250986.78],[718550.6,4250979.77],[718590.6,4250952.77],[718896.61,4251561.76],[718921.62,4251711.77],[718985.63,4252151.77],[719071.64,4252557.77],[718774.64,4252761.78],[718872.59,4253040.32],[718901.44,4253073.97],[718928.48,4253199.23],[719067.6,4253129.53],[719099.61,4253139.32],[719244.6,4253325.85],[719305.14,4253385.43],[719518.65,4253143.76],[719548.65,4253247.77],[719608.66,4253409.77],[719630.57,4253491.44],[719630.66,4253491.76],[719066.53,4254418.13],[719038.46,4254588.38],[719000.1,4254628.86],[718933.93,4254635.86],[718344.71,4255604.81],[717701.71,4256139.82],[716774.72,4256621.84],[716586.72,4256705.84],[716518.72,4256755.84],[716384.72,4256918.84],[714568.74,4258124.88],[713594.74,4258810.88],[714125.76,4259711.88],[715711.76,4260127.86],[715603.77,4260734.86],[715472.74,4260802.8],[715491.8,4261013.74],[715287.74,4261208.74],[715287.87,4261208.77]]]},"properties":{"DPTOCRC":"19","NOMBRE":"SAN VICENTE DEL RASPEIG","ZONA_COD":"1910","DEPARTAMENTO":"ALICANTE"}},{"type":"Feature","geometry":{"type":"Polygon","coordinates":[[[704548.85,4237503.49],[704460.66,4237445.51],[703789.12,4237255.71],[703646.88,4237207.29],[703224.97,4237479.95],[703150.33,4237408.57],[702900.01,4237205.98],[702733.91,4237088.2],[702638.81,4237208.86],[702586.65,4237327.75],[702516.86,4237385.18],[702470.26,4237398.55],[702672.6,4237836.18],[702288.99,4238080.66],[702278.81,4238104.62],[701897.56,4237971.67],[701825.27,4238177.89],[701939.37,4238177.09],[702022.66,4238217.51],[702085.25,4238201.34],[702093.9,4238272.98],[702095.86,4238487.94],[702025.39,4238615.11],[702028.72,4238619.27],[701534.29,4238482.48],[701341.86,4239328.85],[701249.82,4239345.78],[701117.74,4239342.52],[701004.21,4239324.01],[701004.3,4239323.63],[701115.91,4238860.84],[701128.16,4238810.04],[701173.26,4238666.21],[701241.7,4238372.23],[701222.7,4238195.57],[701232.78,4238046.96],[701216.41,4237737.44],[701216.35,4237736.4],[701217.15,4237638.67],[701249.19,4237514.62],[701263.03,4237391.77],[701172.42,4237148.24],[701210.23,4237097.01],[701227.44,4236988.27],[701222.04,4236909.7],[701217.08,4236884.69],[701215.1,4236874.69],[701205.44,4236845.51],[701181.51,4236749.1],[701175.43,4236717.79],[701171.07,4236664.51],[701175.17,4236518.56],[701165.13,4236403.73],[701151.2,4236324.04],[701141.72,4236269.52],[701128.44,4236193.15],[701114.16,4236111.03],[701113.71,4235867.26],[701133.24,4235558.07],[701020.93,4235223.74],[700901.4,4234973.44],[700872.75,4234655.23],[700744.63,4234325.37],[700720.99,4234280.53],[700808.24,4234237.74],[700859.04,4234171.07],[700935.24,4234157.31],[701172.3,4234085.34],[701316.24,4233985.86],[701350.11,4233867.33],[701485.57,4233857.8],[702018.97,4233801.71],[702904.21,4233695.9],[703507.4,4233628.9],[703609,4233641.6],[703520.1,4233914.65],[703446.02,4233984.5],[703333.83,4234162.3],[703327.48,4234443.82],[703304.2,4234556],[703189.9,4234833.29],[703167.5,4235047.45],[703878.51,4234966.36],[703995.84,4234966.36],[704071.76,4234938.75],[704147.68,4234938.75],[704271.48,4234847.54],[704281.99,4234825.32],[704403.67,4234699.71],[704492.66,4234631.15],[704712.97,4234408.67],[704770.12,4234266.85],[704774.35,4234207.58],[704803.98,4234118.68],[704810.33,4234003.32],[704963.79,4233737.68],[705013.53,4233606.45],[705030.47,4233472.04],[705010.36,4233387.37],[705048.46,4233237.09],[705070.68,4233038.12],[705033.64,4232975.68],[704998.72,4232857.15],[705114.9,4232737.42],[705447.21,4232559.09],[705594.85,4232455.37],[705779.4,4231983.3],[705858.01,4231459.61],[705975.09,4231009.39],[706089.24,4230756.1],[706175.11,4230552.19],[706295.82,4230064.77],[706382.3,4229855.08],[706426.64,4229696.03],[706508.23,4229776],[706617.23,4229845],[706725.23,4229901],[706818.23,4229966],[706924.59,4230055.89],[707139.42,4230124.6],[707199.83,4230192.26],[707223.99,4230220.05],[707547.17,4230455.03],[707573.75,4230522.08],[707584.62,4230550.47],[707553.21,4230723.84],[707506.96,4230924.57],[707512.25,4230988],[707501.25,4231074.99],[707479.25,4231169],[707677.25,4231152],[707718.25,4231133],[707896.25,4231011],[707989.24,4230970],[708046.24,4230958],[708129.24,4230968],[708196.24,4231001],[708282.24,4231062],[708360.24,4231072],[708464.24,4231102],[708682.24,4231190],[708726.24,4231235.01],[708875.24,4231339],[708944.24,4231411],[709015.24,4231521.01],[709126.25,4231731.01],[709250.24,4231871.01],[709430.25,4232171.01],[709562.25,4232156.01],[709878.24,4232107.01],[709934.24,4232127.01],[710059.11,4232224.45],[709932.64,4232302.03],[709621.78,4232467.88],[709406.76,4232536.3],[709291.21,4232615.74],[709081.41,4232719.46],[708925.45,4232824.51],[708824.48,4232907.17],[708780.7,4233032.22],[708687.63,4233037.26],[708570.59,4233064.73],[708287.56,4233220.97],[708431.21,4233539.99],[708327.22,4233791.39],[708181.17,4233821.02],[708165.29,4233854.89],[708365.46,4233942.47],[708300.15,4234062.63],[708397.47,4234158.3],[707887.86,4234492.02],[707895.95,4234744.78],[707550.71,4234723.92],[707389.44,4234841.96],[707164.28,4234658.49],[707053.15,4234768.56],[706873.23,4235011.98],[706802.32,4235042.67],[706716.6,4235104.05],[706647.81,4235178.14],[706494.35,4235383.45],[706348.3,4235440.6],[706178.96,4235536.91],[706120.76,4235547.5],[705814.9,4235487.17],[705646.62,4235509.4],[705597.3,4235577.96],[705388.09,4235759.13],[705242.9,4236009.17],[705171.53,4236052.73],[705119.21,4236107.84],[704980.37,4236361.75],[704875.69,4236890.24],[705038.23,4236938.76],[704963.62,4237121.85],[704996.31,4237202.28],[704990.2,4237295.26],[704894.83,4237386.43],[704754.07,4237390.67],[704715.97,4237404.42],[704548.85,4237503.49]]]},"properties":{"DPTOCRC":"20","NOMBRE":"RAVAL (ELX-CENTRO)","ZONA_COD":"2004","DEPARTAMENTO":"ELX"}},{"type":"Feature","geometry":{"type":"Polygon","coordinates":[[[710324.18,4244032.35],[709716.56,4244565.94],[708736.58,4245635.96],[708619.37,4245965.6],[708446.33,4246095.78],[708357.43,4246188.38],[708237.84,4246268.82],[708060.04,4246364.6],[707719.79,4246569.91],[707486.95,4246580.5],[707339.31,4246581.03],[707051.45,4246619.13],[706910.69,4246632.36],[706639.23,4246668.87],[706400.57,4246692.15],[706212.19,4246719.67],[706200.59,4246706.93],[706200.58,4246706.93],[705792.58,4246303.93],[703815.58,4245762.95],[703236.58,4245520.95],[703029.58,4245370.95],[702920.58,4245199.95],[702836.58,4245105.95],[702535.58,4245019.95],[702381.58,4244983.95],[702261.58,4244940.96],[701959.57,4244850.96],[701854.57,4244830.96],[701364.57,4244783.97],[701168.56,4244754.97],[700932.56,4244769.98],[700828.56,4244649.97],[700744.56,4244593.97],[700614.56,4244587.97],[700512.56,4244566.98],[700430.56,4244547.98],[700308.56,4244511.98],[700254.56,4244481.98],[700020.55,4244318.98],[699779.55,4244139.98],[698993.26,4243590.32],[699059.91,4243475.42],[699173.41,4243362.62],[699279.81,4243218.39],[699288.15,4243099.71],[699265.03,4243027.2],[699186.83,4242957.85],[699163.5,4242837.22],[699226.49,4242472.91],[699370.22,4242321.65],[699438.13,4242212.02],[699452.86,4242104.26],[699406.01,4241965.01],[699325.15,4241866.14],[699314.43,4241733.98],[699358.76,4241589.04],[699431.13,4241483.9],[699583.37,4241396.81],[699699.71,4241352.66],[699884.45,4241312.42],[699950.25,4241152.75],[700038.78,4240979.63],[700106.71,4240873.2],[700231.89,4240822.65],[700475.45,4240763.86],[700591.17,4240722.92],[700649.73,4240504.86],[700698.12,4240273.96],[700746.17,4240113.64],[700807.23,4240027.74],[700961.81,4239897.66],[701026.4,4239752.1],[701028.72,4239705.51],[701078.57,4239558.15],[701026.4,4239448.02],[701004.21,4239324.01],[701117.74,4239342.52],[701249.82,4239345.78],[701341.86,4239328.85],[701534.29,4238482.48],[702025.39,4238615.11],[702095.86,4238487.94],[702093.9,4238272.98],[702085.25,4238201.34],[702022.66,4238217.51],[701939.37,4238177.09],[701825.27,4238177.89],[701897.56,4237971.67],[702278.81,4238104.62],[702288.99,4238080.66],[702672.6,4237836.18],[702470.26,4237398.55],[702516.86,4237385.18],[702586.65,4237327.75],[702638.81,4237208.86],[702733.91,4237088.2],[702900.01,4237205.98],[703150.33,4237408.57],[703224.97,4237479.95],[703646.88,4237207.29],[703789.12,4237255.71],[704460.66,4237445.51],[704540.18,4237497.27],[704548.85,4237503.49],[704553.46,4237506.79],[704625.98,4237558.81],[704681.93,4237618.49],[704692.58,4237669.98],[704613.63,4238263.23],[704719.05,4238269.97],[704875.89,4238321.8],[705245.78,4238392.71],[705481.79,4238422.35],[705745.84,4238438.22],[705931.05,4238483.73],[706218.39,4238612.85],[706323.16,4238644.6],[706398.31,4238681.11],[706527.95,4238774.24],[706578.75,4238829.81],[706700.46,4238932.99],[707120.92,4239137.04],[707373.56,4239356.86],[707622.8,4239618.79],[707854.05,4239772.78],[707967.82,4239832.05],[708155.67,4239949.52],[708340.88,4240073.88],[708668.97,4240274.96],[708755.52,4240377.94],[708899.77,4240421.91],[708870.03,4240499.7],[708558.44,4241066.24],[708626.43,4241103.06],[708583.94,4241190.87],[708521.62,4241154.05],[708399.82,4241380.67],[708752.48,4241569.4],[708806.09,4241618.87],[709181.64,4241814.05],[709122.02,4241910.36],[709418.36,4242183.77],[709345.45,4242309.44],[709256.36,4242498.6],[709435.61,4242504.55],[709389.02,4242856.04],[708864.5,4242822.18],[709056.15,4243199.57],[708754.03,4244484.21],[709410.85,4244503.45],[709609.33,4244682.5],[709716.53,4244565.88],[710324.18,4244032.35]]]},"properties":{"DPTOCRC":"20","NOMBRE":"ALTABIX (ELX)","ZONA_COD":"2005","DEPARTAMENTO":"ELX"}},{"type":"Feature","geometry":{"type":"Polygon","coordinates":[[[708006.19,4225618],[707659.19,4225489],[707642.19,4225472],[707623.19,4225433],[707545.19,4225344],[707498.19,4225384],[707451.19,4225413],[707315.2,4225464],[707308.2,4225485],[707318.19,4225562],[707315.2,4225657],[707348.2,4225771],[707448.2,4225997],[707477.2,4226042],[707521.2,4226130],[707532.19,4226271],[707527.2,4226310],[707508.2,4226351],[707483.19,4226370],[707425.19,4226390],[707367.2,4226399],[707322.19,4226393],[707278.2,4226379],[707145.2,4226403],[707129.2,4226447],[707151.2,4226527],[707123.2,4226584],[707058.2,4226613],[707040.2,4226696],[707023.2,4226731],[706993.2,4226769],[706942.2,4226797],[706778.2,4226809],[706738.2,4226804],[706673.2,4226784.01],[706377.2,4226805.01],[706325.2,4226823],[706299.2,4226827.01],[706222.2,4226794],[705978.2,4226787],[705747.2,4226800.01],[705706.2,4226768],[705587.2,4226750.01],[705542.21,4226774.01],[705466.2,4226786.01],[705407.21,4226777.01],[705356.2,4226808.01],[705148.21,4226910.01],[705026.21,4226957.01],[704968.21,4226957.01],[704880.21,4226942.01],[704659.21,4226937.01],[704578.21,4226942.01],[704406.21,4226927.01],[704306.21,4226932.01],[704199.21,4227247.01],[704106.21,4227574.01],[704054.03,4227803.46],[704551.9,4227928.08],[704970.15,4228033.07],[705131.02,4228073.71],[705506.94,4228581.71],[705552.66,4228657.91],[705588.54,4228791.33],[705803.22,4229080.01],[706036.23,4229329.01],[706240.23,4229500],[706426.64,4229696.03],[706382.3,4229855.08],[706295.82,4230064.77],[706175.11,4230552.19],[706089.24,4230756.1],[705975.09,4231009.39],[705858.01,4231459.61],[705779.4,4231983.3],[705594.85,4232455.37],[705447.21,4232559.09],[705114.9,4232737.42],[704998.72,4232857.15],[705033.64,4232975.68],[705070.68,4233038.12],[705048.46,4233237.09],[705010.36,4233387.37],[705030.47,4233472.04],[705013.53,4233606.45],[704963.79,4233737.68],[704810.33,4234003.32],[704803.98,4234118.68],[704774.35,4234207.58],[704770.12,4234266.85],[704712.97,4234408.67],[704492.66,4234631.15],[704403.67,4234699.71],[704281.99,4234825.32],[704271.48,4234847.54],[704147.68,4234938.75],[704071.76,4234938.75],[703995.84,4234966.36],[703878.51,4234966.36],[703167.5,4235047.45],[703189.9,4234833.29],[703304.2,4234556],[703327.48,4234443.82],[703333.83,4234162.3],[703446.02,4233984.5],[703520.1,4233914.65],[703609,4233641.6],[703507.4,4233628.9],[702904.21,4233695.9],[702018.97,4233801.71],[701485.57,4233857.8],[701350.11,4233867.33],[701316.24,4233985.86],[701172.31,4234085.34],[700935.24,4234157.31],[700859.04,4234171.07],[700808.24,4234237.74],[700720.99,4234280.53],[700619.45,4234087.9],[700482.5,4233910.07],[700427.31,4233747.07],[700424.01,4233430.81],[700350.58,4233294.74],[700207.65,4233054.68],[700169.56,4232890.42],[700176.56,4232755.07],[700188.96,4232718.34],[700216.88,4232423.34],[700911.03,4231868.44],[700974.92,4231773.34],[700912.48,4231713.02],[700929.41,4231576.49],[700865.91,4231502.41],[700608.74,4231448.43],[700436.23,4231498.18],[700129.31,4231435.73],[699989.61,4231384.93],[699944.1,4231392.34],[699826.63,4231483.36],[699663.64,4231560.62],[699575.8,4231683.38],[699437.16,4231942.68],[699414.08,4231961.91],[699383.19,4231434.68],[699402.24,4231199.73],[699400.12,4231146.81],[699353.55,4230969.01],[699300.63,4230803.91],[699294.28,4230668.44],[699209.62,4230541.44],[699059.33,4230018.62],[699029.7,4229925.49],[698970.43,4229601.64],[698904.82,4229402.67],[698892.12,4229294.72],[698862.96,4229303.22],[698810.26,4226509.98],[698644.91,4226496.99],[698284.15,4226404.91],[697879.38,4226385.91],[697529.11,4226374.67],[697202.85,4226351.25],[696947.66,4226348.23],[697002.21,4226306.03],[700186.21,4223429.02],[701536.22,4223398.01],[701784.22,4223408.02],[702654.22,4223757.01],[703405.22,4224126.01],[704134.22,4224302.01],[704989.21,4224236],[705227.21,4223830],[705487.21,4222650],[705602.05,4222649.24],[706163.79,4222622.59],[706340.62,4222654.72],[706983.2,4222693],[706989.19,4222819],[707015.2,4222968],[707026.19,4223120],[707078.2,4223381],[707098.19,4223535],[707180.19,4223742],[707187.19,4223841],[707223.19,4223936],[707318.19,4224266],[707399.19,4224454],[707432.19,4224572],[707504.19,4224744],[707611.19,4224955],[707679.19,4225059],[707723.19,4225158],[707842.19,4225337],[707891.19,4225436],[708006.19,4225618]]]},"properties":{"DPTOCRC":"20","NOMBRE":"EL PLA (ELX)","ZONA_COD":"2006","DEPARTAMENTO":"ELX"}},{"type":"Feature","geometry":{"type":"Polygon","coordinates":[[[700308.33,4237867.17],[700229.21,4237770.46],[700353.9,4237765.17],[700348.1,4237651.4],[700456.67,4237648.48],[700462.03,4237761.26],[700889.43,4237747.05],[701070.57,4237741.48],[701166.76,4237739.07],[701216.41,4237737.44],[701232.78,4238046.96],[701222.7,4238195.57],[701241.7,4238372.23],[701173.26,4238666.21],[701115.91,4238860.84],[701035.86,4238877.76],[701019.95,4238881.2],[700998.99,4238890.01],[700972.31,4238836.49],[701039.86,4238667.21],[700832.15,4238582.45],[700824.97,4238610.8],[700685.01,4238555.12],[700639.78,4238663.13],[700540.14,4238620.24],[700597.58,4238511.5],[700497.87,4238461.94],[700540.19,4238402.29],[700421.11,4238326.27],[700588.74,4238142.94],[700464.47,4238041.99],[700308.33,4237867.17]]]},"properties":{"DPTOCRC":"20","NOMBRE":"SAN FERMIN (ELX)","ZONA_COD":"2008","DEPARTAMENTO":"ELX"}},{"type":"Feature","geometry":{"type":"Polygon","coordinates":[[[710059.11,4232224.45],[710237.24,4232351.01],[710401.24,4232485.02],[710415.24,4232497.02],[710510.24,4232584.02],[710575.24,4232667.02],[710628.25,4232750.02],[710703.25,4232908.02],[710787.25,4233014.02],[710885.25,4233180.02],[710980.25,4233273.02],[711024.25,4233276.02],[711093.25,4233289.01],[711200.25,4233333.02],[711345.26,4233358.02],[711473.25,4233369.02],[711561.25,4233388.02],[711647.25,4233428.02],[711732.25,4233478.02],[711991.26,4233681.01],[712104.26,4233786.01],[712184.27,4233879],[712368.27,4234164],[712425.27,4234272],[712492.28,4234441.99],[712530.28,4234517.98],[712710.29,4234719.98],[712867.3,4234902.97],[713062.3,4235088.97],[713229.3,4235160.96],[713263.3,4235190.96],[713361.31,4235302.96],[713418.31,4235353.96],[713458.31,4235399.95],[713428.32,4235717.94],[713557.32,4235742.94],[713856.32,4235852.94],[713933.32,4235870.93],[713997.32,4235864.94],[714165.32,4235811.94],[714222.32,4235816.94],[714278.32,4235839.94],[714467.32,4235960.93],[714543.32,4235980.93],[714749.32,4235982.93],[714994.32,4236035.93],[715316.32,4235873.93],[715326.97,4235851.52],[715388.54,4235888.49],[715469.82,4235873.25],[715561.26,4235858.01],[715651.85,4235845.31],[715711.97,4235819.91],[715780.05,4235794.57],[715817.89,4235781.87],[715843.02,4235770.5],[715882.45,4235753.83],[715964.73,4235719.96],[716012.36,4235703.03],[716068.87,4235688.85],[716093,4235687.58],[716147.19,4235669.37],[716159.47,4235649.47],[716180.21,4235642.7],[716203.49,4235636.77],[716273.34,4235622.8],[716319.91,4235617.72],[716374.94,4235591.9],[716491.36,4235546.6],[716530.31,4235522.47],[716553.55,4235508.65],[716590.06,4235472.14],[716599.27,4235468.01],[716613.56,4235465.15],[716677.69,4235410.54],[716691.34,4235397.2],[716702.14,4235385.14],[716707.22,4235380.69],[716736.43,4235361.64],[716761.51,4235347.67],[716785.96,4235334.34],[716794.53,4235330.85],[716815.49,4235325.13],[716839.93,4235316.88],[716943.12,4235183.21],[716962.81,4235167.65],[716998.68,4235132.09],[717013.61,4235117.8],[717030.43,4235102.88],[717097.74,4235060.34],[716984.02,4235000.65],[717107.27,4234902.95],[717124.27,4234870.96],[717138.27,4234791.96],[717168.26,4234706.96],[717223.26,4234608.96],[717338.26,4234447.97],[717403.25,4234307.97],[717493.25,4234189.97],[717518.25,4233995.98],[717519.24,4233887.98],[717528.24,4233829.98],[717605.24,4233710.99],[717661.24,4233688.99],[717681.24,4233688.99],[717743.24,4233720.98],[717796.24,4233670.98],[717875.24,4233624.98],[717926.24,4233625.98],[717886.24,4233766.98],[717914.25,4233890.97],[717905.25,4233955.97],[717826.25,4234230.97],[717808.26,4234403.96],[717765.26,4234444.96],[717697.27,4234628.96],[717588.27,4234885.95],[717543.28,4235133.94],[717466.29,4235392.93],[717466.29,4235514.93],[717430.3,4235702.93],[717400.3,4235946.92],[717395.31,4236234.91],[717348.32,4236408.9],[717338.32,4236474.9],[717332.33,4236769.9],[717319.34,4236966.89],[717283.35,4237236.88],[717255.35,4237504.87],[717222.36,4237668.87],[717152.37,4238146.86],[717127.38,4238206.85],[717101.38,4238335.85],[717085.39,4238523.84],[717050.39,4238669.84],[717053.39,4238836.83],[717001.86,4239107.86],[716795.19,4239113.71],[716737.38,4239215.57],[716014.75,4240710.47],[715996.31,4240764.06],[715914.48,4240919.9],[715808.62,4241066.85],[715650.68,4241347.41],[715424,4241728.31],[714948.35,4242542.13],[714909.43,4242627.27],[714824.48,4242672.75],[714181.51,4242298.7],[714121.48,4242280.82],[713594.48,4242196.82],[713203.48,4242157.83],[712656.48,4242094.83],[712619.48,4242100.83],[712276.85,4242310.26],[711868.48,4242541.84],[711826.49,4242573.84],[711684.49,4242728.84],[711011.54,4243428.73],[710324.18,4244032.35],[709716.53,4244565.88],[709609.33,4244682.5],[709410.85,4244503.45],[708754.03,4244484.21],[709056.15,4243199.57],[708864.5,4242822.18],[709389.02,4242856.04],[709435.61,4242504.55],[709256.36,4242498.6],[709345.45,4242309.44],[709418.36,4242183.77],[709122.02,4241910.36],[709181.64,4241814.05],[708806.09,4241618.87],[708752.48,4241569.4],[708399.82,4241380.67],[708521.62,4241154.05],[708583.94,4241190.87],[708626.43,4241103.06],[708558.44,4241066.24],[708870.03,4240499.7],[708899.77,4240421.91],[708755.52,4240377.94],[708668.97,4240274.96],[708340.88,4240073.88],[708155.67,4239949.52],[707967.82,4239832.05],[707854.05,4239772.78],[707622.8,4239618.79],[707373.56,4239356.86],[707120.92,4239137.04],[706700.46,4238932.99],[706578.75,4238829.81],[706527.95,4238774.24],[706398.31,4238681.11],[706323.16,4238644.6],[706218.39,4238612.85],[705931.05,4238483.73],[705745.84,4238438.22],[705481.79,4238422.35],[705245.78,4238392.71],[704875.89,4238321.8],[704719.05,4238269.97],[704613.63,4238263.23],[704692.58,4237669.98],[704681.93,4237618.49],[704625.98,4237558.81],[704548.85,4237503.49],[704715.97,4237404.42],[704754.07,4237390.67],[704894.83,4237386.43],[704990.2,4237295.26],[704996.31,4237202.28],[704963.62,4237121.85],[705038.23,4236938.76],[704875.68,4236890.24],[704980.37,4236361.75],[705119.21,4236107.84],[705171.53,4236052.73],[705242.9,4236009.17],[705388.09,4235759.13],[705597.3,4235577.96],[705646.62,4235509.4],[705814.9,4235487.17],[706120.76,4235547.5],[706178.96,4235536.91],[706348.3,4235440.6],[706494.35,4235383.45],[706647.81,4235178.14],[706716.6,4235104.05],[706802.32,4235042.67],[706873.23,4235011.98],[707053.15,4234768.56],[707164.28,4234658.49],[707389.44,4234841.96],[707550.71,4234723.92],[707895.95,4234744.78],[707887.86,4234492.02],[708397.47,4234158.3],[708300.15,4234062.63],[708365.46,4233942.47],[708165.29,4233854.89],[708181.17,4233821.02],[708327.22,4233791.39],[708431.21,4233539.99],[708287.56,4233220.97],[708570.59,4233064.73],[708687.63,4233037.26],[708780.7,4233032.22],[708824.48,4232907.16],[708925.45,4232824.51],[709081.41,4232719.46],[709291.21,4232615.74],[709406.76,4232536.3],[709621.78,4232467.88],[709932.64,4232302.03],[710059.11,4232224.45]]]},"properties":{"DPTOCRC":"20","NOMBRE":"TORRELLANO (ELX)","ZONA_COD":"2009","DEPARTAMENTO":"ELX"}},{"type":"Feature","geometry":{"type":"Polygon","coordinates":[[[720957.97,4227310.91],[720903.66,4227279.22],[720808.97,4227287.63],[720780.78,4227339.31],[720740.54,4227340.56],[720646.78,4227378.27],[720505.28,4227344.63],[720429.04,4227337.53],[720293.04,4227306.32],[720238.97,4227335.28],[720146.47,4227331.89],[720121.66,4227287.43],[720180.47,4227263.93],[720320.28,4227302.64],[720386.04,4227277.32],[720444.91,4227169.73],[720488.1,4227150.23],[720524.66,4227176.52],[720568.66,4227131.17],[720625.04,4227138.06],[720658.97,4227108.63],[720752.85,4227202.81],[720815.28,4227205.22],[720907.04,4227186.63],[720962.22,4227145.13],[720993.78,4227022.31],[721029.66,4226971.17],[721080.54,4226966.05],[721115.54,4226915.12],[721195.04,4226884.21],[721296.04,4226884.87],[721336.41,4226916.21],[721416.28,4226935.51],[721529.91,4226867.26],[721554.54,4226825.41],[721609.41,4226829.26],[721639.97,4226873.75],[721812.41,4226922.61],[721910.91,4226963.29],[721989.78,4226972.25],[722050.47,4226943.2],[722102.79,4226943.75],[722080.66,4227028.61],[722004.42,4227054.04],[721952.79,4227052],[721692.72,4227180.87],[721535.78,4227220.71],[721487.78,4227288.76],[721432.47,4227293.05],[721324.16,4227247.26],[721123.28,4227264.26],[721061.97,4227217.55],[720953.41,4227277.72],[720957.97,4227310.91]]]},"properties":{"DPTOCRC":"20","NOMBRE":"SANTA POLA","ZONA_COD":"2010","DEPARTAMENTO":"ELX"}}]}